DBA,BORO,BUILDING,STREET,ZIPCODE,PHONE,cuisine,Latitude,Longitude
SMASHBURGER,Bronx,1925,TURNBULL AVENUE,10473.0,3478018360,American,40.82285296,-73.85786251
AJISAI JAPANESE FUSION,Manhattan,795,LEXINGTON AVENUE,10065.0,2123550888,Japanese,40.76385541,-73.96697997
JUNOON,Manhattan,19,WEST   24 STREET,10010.0,2124902100,Indian,40.74262626,-73.99009391
BROADHURST THEATER,Manhattan,235 WEST,44th Street,10036.0,2125867610,American,40.75801864,-73.98762264
AUNTS ET UNCLES,Brooklyn,1407,NOSTRAND AVENUE,11226.0,9175868529,Vegan,40.65211778,-73.94970452
SUSHI DAMO,Manhattan,330A,WEST   58 STREET,10019.0,2127078609,Japanese,40.76780591,-73.98338972
El Tequilazo,Queens,17237,HILLSIDE AVE,11432.0,6462584663,Spanish,40.71217419,-73.7889544
YUMMY YUMMY CHINESE,Queens,5273,65TH PL,11378.0,7188987128,Chinese,40.73208173,-73.90011051
SPRINKLES,Brooklyn,5508,18 AVENUE,11204.0,7184966196,Frozen Desserts,40.62477328,-73.98452778
ARTOPOLIS CAFE,Manhattan,1090,AMSTERDAM AVENUE,10025.0,2126663744,Mediterranean,40.80522011,-73.96223102
LA TUNA RESTAURANT,Staten Island,68,VAN RIPER STREET,10302.0,3476002821,Spanish,40.62611416,-74.14373786
BAR SIX,Manhattan,502,6 AVENUE,10011.0,2126911363,French,40.73648114,-73.99745966
JUICE RIGHT CORP.,Manhattan,100,WEST  143 STREET,10030.0,9172658512,"Juice, Smoothies, Fruit Salads",40.8191937,-73.93733349
MARCO'S,Brooklyn,1071,BROADWAY,11221.0,2159324545,American,40.69461918,-73.93104287
MILA CAFE,Manhattan,694,COLUMBUS AVENUE,10025.0,2126624392,American,40.79138575,-73.96860585
NEW JOY GARDEN,Brooklyn,482,RIVERDALE AVENUE,11207.0,7183852288,Chinese,40.66254116,-73.89814971
BELLA ROMA PIZZA,Brooklyn,7022,3 AVENUE,11209.0,9176234300,Pizza,40.63465523,-74.02648142
CRYSTAL PALACE,Queens,138-31,QUEENS BOULEVARD,11435.0,7185589295,JewishKosher,40.70820841,-73.81802791
MAKAVELY PIZZA,Manhattan,51,COLUMBIA STREET,10002.0,2122289488,Pizza,40.71667876,-73.98046251
JOE & THE JUICE,Manhattan,1166,LEXINGTON AVENUE,10028.0,9179240079,"Juice, Smoothies, Fruit Salads",40.77572916,-73.95834478
CITI FIELD NATHAN'S FAMOUS STAND 417,Queens,0,126TH & ROOSEVELT AVENUE,,7185958100,Hotdogs,0.0,0.0
HUNAN VILLAGE,Manhattan,339,LEXINGTON AVENUE,10016.0,6466924888,Chinese,40.74971691,-73.97728755
SMASHBURGER #1714,Bronx,1925,TURNBULL AVENUE,10473.0,3478018360,American,40.82285296,-73.85786251
DELICIAS CALENAS 3,Queens,10307,ROOSEVELT AVENUE,11368.0,7186512342,Spanish,40.74988933,-73.86253748
TANDOORI KITCHEN,Queens,15412,ROCKAWAY BLVD,11434.0,3476767746,Indian,40.66793262,-73.78100952
BAKEWELL BAKERY & RESTAURANT,Queens,127-08,LIBERTY AVENUE,11419.0,7183225600,Caribbean,40.68874461,-73.81766296
RED BAR,Queens,161-21,CROCHERON AVENUE,11358.0,7183530044,Korean,40.76256529,-73.80435266
NEW RED LANTERN,Brooklyn,5701,FORT HAMILTON PARKWAY,11219.0,7189729889,Chinese,40.63445512,-74.00349121
BEN'S PIZZA,Manhattan,123,MACDOUGAL STREET,10012.0,2126770976,Pizza,40.73038779,-74.00016597
GOOD FRIENDS,Queens,11000,ROCKAWAY BOULEVARD,11420.0,7182153308,AsianAsian Fusion,40.67766457,-73.82875789
12 CHAIRS CAFE,Brooklyn,342,WYTHE AVENUE,11249.0,3472277077,Middle Eastern,40.71451496,-73.96504938
MUNCHINETTE,Brooklyn,1738,SHEEPSEAD BAY ROAD,,7183325463,American,0.0,0.0
NEW LUCK GARDEN,Manhattan,1954,AMSTERDAM AVENUE,10032.0,2122835533,Chinese,40.83283754,-73.94206175
MI PUEBLITO COMIDA TIPICA MEXICANA,Bronx,111,EAST  167 STREET,10452.0,7185884023,Mexican,40.83495077,-73.91899299
MI CASA RESTAURANT,Queens,11620,JAMAICA AVENUE,11418.0,7188499636,Latin American,40.69920376,-73.83309498
HEALTHY CHOICE GOURMET DELI & PIZZA,Manhattan,341,7 AVENUE,10001.0,2122799221,Sandwiches,40.74793484,-73.9928324
FRYING PAN BROOKLYN,Brooklyn,33,35 STREET,11232.0,6467081814,Seafood,40.65701155,-74.00735242
CASA VIEJA RESTAURANT,Brooklyn,6007,5 AVENUE,11220.0,9178366332,Spanish,40.6393562,-74.01627551
CHIPOTLE MEXICAN GRILL,Manhattan,1379,6 AVENUE,10019.0,6469982329,Tex-Mex,40.76355059,-73.97776293
TEXAS CHICKEN & BURGERS,Queens,14712,JAMAICA AVE,11435.0,7182985900,Chicken,40.70175194,-73.80748198
Q102 POOL HALL AND LOUNGE,Queens,10214,JAMAICA AVE,11418.0,6462879162,,40.69514734,-73.84508497
BELLEROSE FAMOUS PIZZA,Queens,24822,UNION TURNPIKE,11426.0,7183472100,Pizza,40.74244012,-73.72170239
KASHKAVAL GARDEN,Manhattan,852,9 AVENUE,10019.0,2122451758,Mediterranean,40.76691976,-73.98642243
MOTI'S,Brooklyn,5007,16 AVENUE,11204.0,7184389833,JewishKosher,40.63035913,-73.98619813
DUNKIN DONUTS,Manhattan,1006,1 AVENUE,10022.0,3477017760,American,40.75714075,-73.96375636
LIEBMAN'S DELI,Bronx,552,WEST  235 STREET,10463.0,7185484534,JewishKosher,40.88557858,-73.90962202
SWEETORY,Queens,7128,ROOSEVELT AVE,11372.0,3479877351,"Coffee,Tea",40.74654681,-73.89417361
CARIFESTA RESTAURANT,Queens,12615,LIBERTY AVENUE,11419.0,7183222210,Caribbean,40.68868453,-73.81785784
CHINA CITY II,Brooklyn,1732,86 STREET,11214.0,7182342885,Chinese,40.60798441,-74.00387878
AURORA SOHO,Manhattan,510,BROOME STREET,10013.0,2123349020,Italian,40.7235121,-74.00333355
AU CHEVAL DINER,Manhattan,79,WALKER STREET,10013.0,6143158682,American,40.71823944,-74.00171354
CUISINE BY CLAUDETTE,Queens,143,BEACH  116 STREET,11694.0,7189455511,French,40.57876762,-73.83661901
CHOPSTICKS HOUSE,Staten Island,895,HUGUENOT AVENUE,10312.0,7186054230,Chinese,40.53253085,-74.19207907
GOURMET BAGEL,Manhattan,874,LEXINGTON AVENUE,10065.0,2125353030,SandwichesSaladsMixed Buffet,40.76620442,-73.96528929
BRICKS & HOPS BEER GARDEN,Bronx,65,BRUCKNER BOULEVARD,10454.0,7184503991,American,40.80638572,-73.92639688
TEXAS CHICKEN & BURGERS,Brooklyn,521,OCEAN AVENUE,11226.0,7188262493,Chicken,40.64986047,-73.9609571
DUNKIN',Queens,4008,BELL BOULEVARD,11361.0,7182247013,"Coffee,Tea",40.76411803,-73.77126284
KING WAH RESTAURANT,Queens,6417,FRESH POND RD,11385.0,7184185858,Chinese,40.71015026,-73.89922732
LEE GOOD TASTE 88,Brooklyn,2686,PITKIN AVENUE,11208.0,9173229851,Chinese,40.67523261,-73.87299538
LOCANUT,Manhattan,361,WEST   17 STREET,10011.0,9176842443,SandwichesSaladsMixed Buffet,40.74236042,-74.00276792
AKAGI SUSHI,Queens,11609,METROPOLITAN AVE,11418.0,7185590088,Japanese,40.70740073,-73.83573624
NICK'S GOURMET DELI,Queens,7415,DITMARS BOULEVARD,11370.0,7182788338,American,40.76837121,-73.89504134
LINDA PIZZERIA,Bronx,4336,KATONAH AVENUE,10470.0,7186645263,Pizza,40.89992023,-73.86761585
KENNEDY FRIED CHICKEN,Bronx,157,DREISER LOOP,10475.0,7186713636,Chicken,40.87663372,-73.82985625
JIMBO'S HAMBURGER PALACE,Bronx,4137,WHITE PLAINS ROAD,10466.0,7185470003,Hamburgers,40.89168873,-73.85832963
LAO CHAO BUNS,Queens,4214B,BOWNE ST,11355.0,7188881277,Chinese,40.75684616,-73.82179285
GREAT WALL,Bronx,594,GRAND CONCOURSE,10451.0,7189935420,Chinese,40.8197062,-73.92675784
LA HACIENDA PANADERIA,Brooklyn,5707,5 AVENUE,11220.0,7185763248,Bakery ProductsDesserts,40.64106644,-74.01449952
MR.BUN,Brooklyn,2048,86 STREET,11214.0,7186762751,Chinese,40.60391118,-73.9971262
CHA KEE,Manhattan,43,MOTT STREET,10013.0,2125772888,Chinese,40.71521471,-73.99874466
NO. 1 CHINESE RESTAURANT,Bronx,7,WEST TREMONT AVENUE,10453.0,7182945294,Chinese,40.85194742,-73.90962452
GOOD CHINESE RESTAURANT,Brooklyn,663,KNICKERBOCKER AVENUE,11221.0,7183667829,Chinese,40.6950506,-73.91174209
SAMBAK SAMBABJIP,Queens,4111,150TH ST,11355.0,7184611212,Korean,40.76235044,-73.81379667
C & T CUISINE,Brooklyn,5016,AVENUE D,11203.0,7183472970,Caribbean,40.64213508,-73.92908667
J AND D PIZZA,Queens,9853,63 ROAD,11374.0,7182754347,Pizza,40.73239929,-73.85771342
SPOT DESSERT BAR,Queens,3916,PRINCE ST,11354.0,7184828712,CoffeeTea,40.75947768,-73.83224308
DON ANGIE,Manhattan,103,GREENWICH AVENUE,10014.0,4407855017,American,40.73773276,-74.00181869
ESSENCE BAR & GRILL,Brooklyn,1662,ATLANTIC AVENUE,11213.0,7189137495,American,40.67767825,-73.93544444
PARIS BAGUETTE,Manhattan,371,7 AVENUE,10001.0,9148750404,Bakery ProductsDesserts,40.7487994,-73.99220432
CAFE NUNEZ,Manhattan,240,WEST   35 STREET,10001.0,2125647444,Latin American,40.75216441,-73.9913774
PRET A MANGER,Manhattan,787,SEVENTH AVENUE,10019.0,2122622328,"Soups,Salads,Sandwiches",40.76194849,-73.9826223
NORTH SHORE DINER,Queens,19652,NORTHERN BLVD,11358.0,7182258000,American,40.75784728,-73.78456423
KUNG FU STEAMER,Brooklyn,6415,11 AVENUE,11219.0,9173026571,Chinese,40.6290835,-74.00544715
NINTH STREET ESPRESSO,Manhattan,341,EAST   10 STREET,10009.0,2127773508,CoffeeTea,40.72706494,-73.98037286
MAKANA,Manhattan,1502,AMSTERDAM AVENUE,10031.0,2123685033,Hawaiian,40.81838034,-73.95262405
DUNKIN',Bronx,2515,BOSTON ROAD,10467.0,7182312835,Donuts,40.86359623,-73.8649986
PEPE GIALLO,Manhattan,195,10 AVENUE,10011.0,2122426055,Italian,40.74676295,-74.0048505
CAFE LA NOTTE II,Brooklyn,2636,GERRITSEN AVENUE,11229.0,7187148864,CoffeeTea,40.59445682,-73.92695185
QUEENS BULLY,Queens,11330,QUEENS BLVD,11375.0,7185208600,American,40.71750943,-73.83552365
BRICKLANE CURRY HOUSE,Queens,4005,SKILLMAN AVE,11104.0,9173554353,Indian,40.74719586,-73.92341651
HUNTER'S SPICE GRILL,Brooklyn,1274,FULTON STREET,11216.0,3477708021,Other,40.68039457,-73.94989943
TENZAN,Manhattan,1714,2 AVENUE,10128.0,2123693600,Other,40.77970589,-73.95039493
KENNEDY FRIED CHICKEN,Bronx,1359,EAST GUN HILL ROAD,10469.0,7185158990,Chicken,40.87053071,-73.84635252
ZACA CAFE,Brooklyn,426,MARCUS GARVEY BOULEVARD,11221.0,7184432500,American,40.68225789,-73.93790975
SLIMAK CAFE,Brooklyn,4110,4 AVENUE,11232.0,3476893332,American,40.65138749,-74.00747072
THE HILLS RESTAURANT AND BAR,Brooklyn,4706,CHURCH AVENUE,11203.0,7188565501,Caribbean,40.65159876,-73.93310926
MIDNIGHT THEATRE,Manhattan,440,WEST   33 STREET,10001.0,9179052789,Southeast Asian,40.75327361,-73.99814479
MB RESTAURANT,Bronx,2771,WEBSTER AVENUE,10458.0,7185643825,African,40.86584503,-73.88607595
NICKOLAS' DELI RESTAURANT,Queens,69-45,51 AVENUE,11377.0,7184249316,Mexican,40.73544482,-73.89480473
ASTORIA TACO FACTORY,Queens,2802,21ST ST,11102.0,7187770106,Mexican,40.77103912,-73.92689821
AU BON PAIN,Queens,9001,QUEENS BLVD,11373.0,7189063661,American,40.73395867,-73.87199176
L'ARTUSI,Manhattan,228,WEST   10 STREET,10014.0,2122555757,American,40.73390097,-74.0051743
CROWN FRIED CHICKEN,Brooklyn,524,VANDALIA AVENUE,11239.0,7188725817,American,40.65575037,-73.87318758
CAFE COLOMBIA,Queens,4627,GREENPOINT AVE,11104.0,7183921253,Bakery ProductsDesserts,40.74229586,-73.91855755
KENSINGTON CATERING (ATERES CHYNKA),Brooklyn,129,ELMWOOD AVENUE,11230.0,7182528480,JewishKosher,40.62708012,-73.97574795
TAVA,Brooklyn,318,5 AVENUE,11215.0,7184995600,Turkish,40.67302357,-73.98309979
SPIRIT OF NEW YORK,Manhattan,62,CHELSEA PIERS,10011.0,2127577735,Other,40.74799239,-74.00849574
ELEVA COFFEE,Brooklyn,7,BELL SLIP,11222.0,3472944200,CoffeeTea,40.73671491,-73.95771253
CITI FIELD STAND 327,Queens,0,126TH ST & ROOSEVELT AVENUE,,7185958100,American,0.0,0.0
POPEYES,Queens,9220,JAMAICA AVE,11421.0,7188460950,Chicken,40.6933407,-73.85298655
The KIOSQUE,Manhattan,80,EAST  116 STREET,10029.0,6467091741,American,40.7995804,-73.94391842
"DUNKIN',' BASKIN ROBBINS",Queens,239,BEACH   20 STREET,11691.0,7188680448,Donuts,40.5960935,-73.75412093
RICHARD ROGERS THEATRE,Manhattan,226,WEST   46 STREET,10036.0,2123454624,American,40.75904777,-73.98621107
DUNKIN,Queens,9015,QUEENS BLVD,11373.0,6464920387,"Coffee,Tea",40.73384018,-73.87157703
TAQUERIA EL TORO,Brooklyn,7302,3 AVENUE,11209.0,7183335200,Tex-Mex,40.63271997,-74.02728768
DELICIOSO RESTAURANT,Bronx,423,EAST  149 STREET,10455.0,7186653336,Latin American,40.81579378,-73.91698964
PIKINE AFRICAN RESTAURANT,Manhattan,243,WEST  116 STREET,10026.0,6469227015,African,40.80394363,-73.95423453
U CAFE,Brooklyn,706,AVENUE U,11223.0,3475495106,CoffeeTea,40.59799325,-73.96389709
ASYA INDIAN RESTAURANT,Brooklyn,479,BERGEN STREET,11217.0,6467526956,Indian,40.68075678,-73.97459986
HONEYBRAINS,Manhattan,372,LAFAYETTE STREET,10012.0,6466784092,American,40.72713233,-73.99376549
MITR THAI,Manhattan,37,WEST   46 STREET,10036.0,2124666699,Thai,40.75658486,-73.98033526
U LIKE CHINESE RESTAURANT,Brooklyn,602,MARCY AVENUE,11206.0,7182439096,Chinese,40.69400823,-73.94894796
AVE D PIZZERIA,Manhattan,15,AVENUE D,10009.0,6468503674,Pizza,40.7204991,-73.97836178
DOMINO'S PIZZA #3680,Manhattan,4797,BROADWAY,10034.0,2125678600,Pizza,40.86611896,-73.92562187
THWAITES PLACE PELHAM PIZZA,Bronx,694,THWAITES PLACE,10467.0,3473267097,Pizza,40.85857689,-73.86802743
CHO-SEN GARDEN,Queens,6443,108TH ST,11375.0,7182751300,JewishKosher,40.73206995,-73.84914824
IKUMI,Manhattan,135,SULLIVAN STREET,10012.0,9178822734,Japanese,40.72674547,-74.00212145
RICO'S CHICKEN POLLOS A LA BRASA,Queens,14604,45TH AVE,11355.0,7188861491,Latin American,40.75489765,-73.81673402
SOPHIES BISTRO,Brooklyn,1906,CONEY ISLAND AVENUE,11230.0,3477758712,JewishKosher,40.61097292,-73.96257545
SUBWAY,Queens,20512,NORTHERN BOULEVARD,11361.0,7184282177,Sandwiches,40.75806243,-73.77792182
LEXINGTON BRASS,Manhattan,517,LEXINGTON AVENUE,10017.0,2123925976,American,40.75522471,-73.97296875
JAMAICA BREEZE RESTAURANT,Queens,2136,MOTT AVE,11691.0,7184716030,Caribbean,40.60508941,-73.75468189
SIDEWALK CAFE,Manhattan,160,COLUMBUS AVENUE,10023.0,2128770110,American,40.77431886,-73.98105571
JUICY MAMA,Brooklyn,253,SCHENECTADY AVENUE,11213.0,7186761050,"Juice, Smoothies, Fruit Salads",40.67001113,-73.93377564
ENIGMA,Brooklyn,2340,CONEY ISLAND AVENUE,11223.0,7183762500,Middle Eastern,40.59980671,-73.96131417
PANADERIA LA MIXTECA POBLANA & DELI,Staten Island,104,VICTORY BOULEVARD,10301.0,7187201221,Mexican,40.63761667,-74.08000268
AYA SUSHI,Manhattan,314,WEST   39 STREET,10018.0,2122215849,Japanese,40.75561461,-73.9918931
YSL BAKERY,Queens,13685,41ST AVE,11355.0,7188860675,Bakery ProductsDesserts,40.75867698,-73.82904695
SOUTHEAST BAKERY,Brooklyn,6821,FORT HAMILTON PARKWAY,11219.0,7186801188,Chinese,40.62900893,-74.01162922
BALVANERA,Manhattan,152,STANTON STREET,10002.0,2125333348,Spanish,40.72053041,-73.98544344
SAKETUMI,Brooklyn,118,MONTAGUE STREET,11201.0,7188558688,AsianAsian Fusion,40.69490055,-73.99475661
PRIMA DONNA PERUVIAN RESTAURANT,Queens,9018,ROOSEVELT AVE,11372.0,9174151449,Latin American,40.74846898,-73.87583272
FOREVER COFFEE BAR,Manhattan,714,WEST  181 STREET,10033.0,6468820009,CoffeeTea,40.85036795,-73.93645095
MABU CAFE NYC,Manhattan,18,DOYERS STREET,10013.0,7186379338,Chinese,40.71461634,-73.99809176
KENNEDY CHICKEN & GRILL,Brooklyn,110B,NASSAU AVENUE,11222.0,7182103491,Chicken,40.72422559,-73.94937209
M.A.'S SOUL FOOD PLUS,Brooklyn,140,EMPIRE BOULEVARD,11225.0,3477899380,Soul Food,40.66346796,-73.95777716
AMARACHI PRIME,Brooklyn,189,BRIDGE STREET,11201.0,6466414510,African,40.69816871,-73.98495787
AGAVE RESTAURANT & LOUNGE,Bronx,1973,SOUTHERN BOULEVARD,10460.0,7185701846,Mexican,40.8431648,-73.88558003
MITCHELL'S RESTAURANT,Brooklyn,617A,VANDERBILT AVENUE,11238.0,7187893212,Soul Food,40.67885037,-73.96841748
PUBLIC RECORDS,Brooklyn,233,BUTLER STREET,11217.0,9172325676,Vegan,40.68195552,-73.98647224
HAREFIELD ROAD PUB,Brooklyn,769,METROPOLITAN AVENUE,11211.0,7183886870,American,40.71460524,-73.94362225
DUNKIN,Queens,13504,JAMAICA AVENUE,11418.0,7182629567,Donuts,40.70239435,-73.81763991
FINN'S BAGELS,Manhattan,477,10 AVENUE,10018.0,2122730700,CoffeeTea,40.75620775,-73.99797145
LONA PIZZA,Bronx,373,EAST  204 STREET,10467.0,7186556600,Pizza,40.87156692,-73.87723632
AMY'S BREAD @ CAFE AT 200 LEX,Manhattan,200,LEXINGTON AVENUE,10016.0,2126799500,Bakery ProductsDesserts,40.74524904,-73.98056959
AMTRAK METROPOLITAN LOUNGEMOYNIHAN TRAIN HALL,Manhattan,421,8 AVENUE,10001.0,6467560159,SandwichesSaladsMixed Buffet,40.75038601,-73.9947811
DUE MONDI CIVIC ASSOCIATION,Queens,97-26,99 STREET,11416.0,6313170118,American,40.68666616,-73.84320453
SUBWAY,Queens,5018,ROOSEVELT AVE,11377.0,6469341424,Sandwiches,40.74353083,-73.91455024
BLAZIN CHICKEN & GYRO,Bronx,16,EAST  167 STREET,10452.0,3474312773,Chicken,40.83592716,-73.92189734
NEW PIZZA PLACE,Queens,20527,HOLLIS AVE,11412.0,9172136272,Pizza,40.7071404,-73.75199649
VERITABLE,Manhattan,1201,2 AVENUE,10065.0,2127530600,American,40.7632776,-73.96240291
SZECHUAN GARDEN,Manhattan,239,WEST  105 STREET,10025.0,2128658808,Chinese,40.80027017,-73.96740971
MY LITTLE PIZZERIA,Brooklyn,114,COURT STREET,11201.0,7186436120,Pizza,40.69017665,-73.99213908
CORAZON LATINO,Queens,13840,84 DRIVE,11435.0,7182628661,Spanish,40.70909531,-73.81824551
FIX-U-PLATE,Brooklyn,1139/1141,CLARKSON AVE,11212.0,9292343888,Caribbean,,
VINTNER WINE MARKET (BEERS & CHEESE),Manhattan,677,9 AVENUE,10036.0,2129577500,Sandwiches,40.7614032,-73.99047014
CARVEL,Bronx,560,MORRIS AVENUE,10451.0,7184022300,Frozen Desserts,40.8178809,-73.92251834
SENECA FIESTA COFFEE BAR,Queens,603,SENECA AVENUE,11385.0,7183666011,Latin American,40.70404643,-73.90977531
3 TIMES,Manhattan,9096,CLINTON ST,,9293077777,Chinese,0.0,0.0
VIVE LA CREPE,Manhattan,532,COLUMBUS AVENUE,10024.0,2129334342,French,40.78622109,-73.97237111
GINBO'S HAMBURGER HOUSE,Bronx,118,EAST  170 STREET,10452.0,3479634644,Hamburgers,40.83930403,-73.91533388
FARMHOUSE RESTAURANT,Brooklyn,1968,86 STREET,11214.0,7188018818,Chinese,40.60492403,-73.99880437
SARABETH'S,Manhattan,40,CENTRAL PARK SOUTH,10019.0,2128265959,American,40.76507882,-73.97487081
DUNKIN,Manhattan,712,3 AVENUE,10017.0,2125325003,"Coffee,Tea",40.7524306,-73.9732442
BARLEY DISFIGURED,Brooklyn,257,SMITH STREET,11231.0,9146326036,Tapas,40.68312812,-73.99288987
JAQUELINE'S LOUNGE,Bronx,1201,MANOR AVENUE,10472.0,7186187402,Spanish,40.82910501,-73.87644411
LAROSA,Staten Island,1172,VICTORY BOULEVARD,10301.0,9294156000,Chicken,40.61666664,-74.10292184
TWIN DONUTS,Bronx,3,WEST FORDHAM ROAD,10468.0,7186180004,American,40.8627823,-73.90133788
REALCARIBBEANPOT RESTAURANT & BAKERY,Brooklyn,3018,CHURCH AVENUE,11226.0,3474259260,Caribbean,40.6508056,-73.94929828
SOPHIE'S CUBAN CUISINE,Manhattan,28,EAST   12 STREET,10003.0,2123822226,Spanish,40.73409028,-73.99323442
KINSHIP COFFEE,Queens,3014,BROADWAY,11106.0,6465122106,CoffeeTea,40.76224159,-73.92599101
CHIPOTLE MEXICAN GRILL,Manhattan,325,SOUTH END AVENUE,10280.0,2122673818,Tex-Mex,40.71052825,-74.01621
ANITA'S LUNCHEONETTE,Brooklyn,6100,16 AVENUE,11204.0,7182360796,American,40.6241867,-73.99264761
JOOY TEA SHOPPE,Brooklyn,5306,8 AVENUE,11220.0,6469440092,CoffeeTea,40.63932703,-74.00558131
NEW FOO SING,Staten Island,3979,AMBOY ROAD,10308.0,7183569554,Chinese,40.55053046,-74.15043313
MCDERMOTT'S PUB,Bronx,2634,EAST TREMONT AVENUE,10461.0,7184924490,American,40.84294874,-73.84625744
LHASA SNACK CAFE,Queens,6911C,ROOSEVELT AVE,11377.0,6462093668,AsianAsian Fusion,40.74635646,-73.89612637
STAND UP CAFE,Brooklyn,7215,18 AVENUE,11204.0,7182328866,Chinese,40.61497805,-73.99435951
MASALLAH SWEETS AND RESTAURANT,Brooklyn,663,CONEY ISLAND AVENUE,11218.0,7182078106,Middle Eastern,40.64106598,-73.96929301
ZURUTTO RAMEN & GYOZA BAR,Manhattan,142,WEST   72 STREET,10023.0,2124980022,Japanese,40.77802689,-73.98028918
DON PEPI PIZZA,Manhattan,0,PENN STATION,10121.0,2129674385,Pizza,40.75005923,-73.99210672
BUONGIORNO BAGELS & CAFE,Queens,7010,88TH ST,11385.0,7188943356,BagelsPretzels,40.71061449,-73.86489482
EL GRAN CASTILLO DE JAGUA RESTAURANT,Brooklyn,355,FLATBUSH AVENUE,11238.0,7186228700,Latin American,40.6768861,-73.97223632
CHARO BROS RESTAURANT,Queens,4042,JUNCTION BLVD,11368.0,3478320335,Latin American,40.74815926,-73.86882447
THE BOIL,Queens,4011,30TH AVE,11103.0,9173378006,Seafood,40.76372961,-73.91464696
TANDOORI HUT,Queens,11908,94TH AVE,11419.0,3478090500,Indian,40.69374726,-73.82761295
LADY CHOW KITCHEN,Manhattan,171,HESTER STREET,10013.0,2123439496,Chinese,40.71777554,-73.99682907
MATTO ESPRESSO,Manhattan,359,EAST   68 STREET,10065.0,9295093101,"Coffee,Tea",40.76567806,-73.9588926
CHICK IT OUT,Queens,3206,35TH ST,11106.0,3476043982,Thai,40.76012032,-73.92249194
CUBA,Manhattan,222,THOMPSON STREET,10012.0,2124207878,Latin American,40.72916087,-73.99903304
DAR 525,Brooklyn,525,GRAND STREET,11211.0,3474220401,Mediterranean,40.71104557,-73.95018291
LAILEILEI JUICE & SNACK BAR,Bronx,832,WESTCHESTER AVENUE,10455.0,3472972460,Latin American,40.8194435,-73.90204549
"COURTYARD LONG ISLAND CITY, MANHATTAN VIEW",Queens,2915,QUEENS PLZ N,11101.0,7187860003,American,40.74984192,-73.93713912
CHARACTERS KTV,Brooklyn,6117,20 AVENUE,11204.0,7187571081,ChineseJapanese,40.61863856,-73.9836323
WENDY'S,Brooklyn,7811,FLATLANDS AVENUE,11236.0,7182511801,American,40.63465391,-73.91461093
SHUNDECK RESTAURANT,Brooklyn,2332,86 STREET,11214.0,9179339779,Chinese,40.60005716,-73.99076333
DUNKIN,Staten Island,1854,HYLAN BOULEVARD,10305.0,2019937035,Donuts,40.58404354,-74.09488258
DE HOT POT,Brooklyn,1127,WASHINGTON AVENUE,11225.0,3472401180,Caribbean,40.66141042,-73.96072324
COBBLE HILL CINEMAS,Brooklyn,265,COURT STREET,11231.0,7185964995,American,40.68494251,-73.99463841
HULA POKE,Manhattan,1028,AMSTERDAM AVENUE,10025.0,9173798888,Hawaiian,40.80342546,-73.96354323
GEBHARD'S BEER CULTURE,Manhattan,228,WEST   72 STREET,10023.0,9176393420,American,40.77913345,-73.98290666
GAIA NOMAYA,Brooklyn,510,FLATBUSH AVENUE,11225.0,5165216574,Middle Eastern,40.66191576,-73.96160241
LE CHEILE,Manhattan,839,WEST  181 STREET,10033.0,2127403111,Irish,40.85132772,-73.93990207
COOPER'S CRAFT & KITCHEN,Manhattan,87,2 AVENUE,10003.0,6466062384,American,40.72686846,-73.9889273
CHOP'T,Manhattan,100,PARK AVENUE,10017.0,6464390262,American,40.75099346,-73.97850342
JI YOU BRAISED FOOD,Queens,4118,MAIN ST,11355.0,6463396905,Chinese,40.75773034,-73.82925153
ISLAND JUICE AND GRILL,Manhattan,51,EAST  125 STREET,10035.0,9176826668,Caribbean,40.80559781,-73.94030835
NEW RUAN'S RESTAURANT,Brooklyn,1955,86 STREET,11214.0,7182668888,Chinese,40.60514087,-73.99913208
SANT AMBROEUS,Manhattan,1000,MADISON AVENUE,10075.0,2125702211,Italian,40.77531625,-73.96286545
DENISE PIZZA,Queens,8901,101ST AVE,11416.0,3476180399,Pizza,40.68284486,-73.8510051
VIETNAAM,Manhattan,1700,2 AVENUE,10128.0,2127220558,Southeast Asian,40.77926412,-73.95071301
CAFE AROMA,Manhattan,502,9 AVENUE,10018.0,9179223734,American,40.7559908,-73.99439083
EL NUEVO VALLE #2 RESTAURANT LECHONERA,Bronx,855,EAST  180 STREET,10460.0,7182209591,Latin American,40.84558097,-73.88364216
THE OTHEROOM,Manhattan,143,PERRY STREET,10014.0,2126459758,American,40.73487246,-74.00798529
TANGY NOODLE,Manhattan,98,8 AVENUE,10011.0,6464272799,Chinese,40.7402799,-74.00212188
BOULUD SUD & EPICERIE BOULUD,Manhattan,1900,BROADWAY,10023.0,2125951313,Mediterranean,40.77151115,-73.98215045
PLAN B,Manhattan,34,WEST   32 STREET,10001.0,2127369002,Korean,40.74781906,-73.98710123
CARVEL,Bronx,2231A,GRAND CONCOURSE,10453.0,7183292253,Frozen Desserts,40.85607094,-73.90076948
LITTLE ITALY PIZZA,Manhattan,167,WEST   48 STREET,10036.0,6463602346,Pizza,40.75939044,-73.98309584
ROYAL SEAFOOD CAFE,Manhattan,103,MOTT STREET,10013.0,2129667199,Chinese,40.71731169,-73.99746039
ANTOJITOS MEXICANO,Manhattan,511,WEST  181 STREET,10033.0,2125688800,Spanish,40.84833943,-73.93139616
BOCA CHICA SEAFOOD,Manhattan,584,WEST  207 STREET,10034.0,9294747551,Spanish,40.86696932,-73.92076161
C. BURGER INC.,Brooklyn,4917,8 AVENUE,11220.0,6465158201,AsianAsian Fusion,40.64151471,-74.00327178
FREEHOLD IN THE PARK,Manhattan,20,UNION SQUARE WEST,10003.0,2126777818,Pizza,40.73660979,-73.99067938
QUANTUM LEAP,Manhattan,1103,1 AVENUE,10065.0,2123713888,Vegetarian,40.76051052,-73.96132516
2 IN 1 RESTAURANT,Brooklyn,2108,FLATBUSH AVENUE,11234.0,7183380688,Chinese,40.6184523,-73.93232134
EL VIEJO YAYO,Queens,9712,101ST AVE,11416.0,7188801789,Spanish,40.68481728,-73.84400934
NEW HOT WOK,Brooklyn,4912,AVENUE K,11234.0,7182510355,Chinese,40.62577561,-73.92817829
GLEN TERRACE,Brooklyn,5313,AVENUE N,11234.0,7182524614,American,40.61914683,-73.92374769
QUEENS BAGEL AND DELICATESSEN,Queens,11520,QUEENS BLVD,11375.0,7188982121,American,40.71629374,-73.83379152
THE POINT AFRICAN RESTAURANT,Bronx,2037,WEBSTER AVENUE,10457.0,3472701985,African,40.85101631,-73.89895525
CASA LATINA RESTAURANT,Brooklyn,4408,3 AVENUE,11220.0,9173530128,Latin American,40.65092331,-74.01122582
RELISH CATERERS,Bronx,2501,3 AVENUE,10451.0,2122281672,American,40.81020218,-73.92840116
UPTOWN VEG II,Manhattan,349,LENOX AVENUE,10027.0,6465900308,Vegan,40.80937934,-73.94432194
CALLIES TAQUERIA & TEQUILA BAR,Manhattan,547,LENOX AVENUE,10037.0,9172620990,Barbecue,40.81580516,-73.93962357
PHOBAR,Brooklyn,80,6 AVENUE,11217.0,6465338876,Southeast Asian,40.67999928,-73.97488136
AMBER,Manhattan,135,CHRISTOPHER STREET,10014.0,2124775880,Other,40.73296766,-74.00689176
LIBERMAN'S LUNCHEONETTE,Brooklyn,4801,16 AVENUE,11204.0,7188518696,JewishKosher,40.63150355,-73.98500899
FAY DAY BAKERY,Queens,13351,41ST AVE,11355.0,7184569331,Bakery ProductsDesserts,40.75785531,-73.83023302
EL PATRON NIGHTCLUB CABARET-RESTAURANT,Bronx,1465,JEROME AVENUE,10452.0,6462280275,American,40.84105646,-73.91710618
EL JOBITO RESTAURANT,Manhattan,1579,SAINT NICHOLAS AVENUE,10040.0,6465902508,Spanish,40.85421516,-73.93015742
MEXICUE,Manhattan,1440,BROADWAY,10018.0,6468285957,Mexican,40.75460407,-73.98676062
MIMMOS BRICK OVEN PIZZA,Staten Island,3959,AMBOY ROAD,10308.0,7189676560,Pizza,40.55089882,-74.15000935
MASTER WOK,Brooklyn,5100,KINGS PLAZA SHOPPING CT,11234.0,7182586943,Chinese,40.60992885,-73.92228162
CONNIE O'S,Brooklyn,158,NORMAN AVENUE,11222.0,9175787959,American,40.72662943,-73.94807863
THE RICHMOND,Staten Island,695,BAY STREET,10304.0,7184898805,American,40.6250354,-74.07472444
LUCKY STAR RESTAURANT,Queens,3452A,JUNCTION BOULEVARD,11372.0,7184461794,Chinese,40.75372924,-73.87201498
RUFFLES BAR,Queens,919,CROSSBAY BOULEVARD,11693.0,7183182300,Bottled Beverages,40.6062613,-73.81956374
KAIETEUR RESTAURANT,Queens,8712,LEFFERTS BOULEVARD,11418.0,7188500787,Caribbean,40.69957628,-73.83069576
PITA GRILL,Manhattan,1083,2 AVENUE,10022.0,2127501122,JewishKosher,40.75945503,-73.96519536
BILLYMARKS WEST,Manhattan,332,9 AVENUE,10001.0,2126290118,American,40.75033123,-73.99851662
CACHAPAS Y MAS,Manhattan,107,DYCKMAN STREET,10040.0,2123042224,Latin American,40.86192457,-73.92494329
TRUFA PIZZERIA,Manhattan,3161,BROADWAY,10027.0,9172386330,,40.81461703,-73.95907901
ARCADIA,Queens,1221,ASTORIA BLVD,11102.0,3477306181,American,40.7721197,-73.92994057
COLONY FRIED CHICKEN,Bronx,864,PROSPECT AVENUE,10459.0,6465785608,Chicken,40.8202389,-73.90137229
CROWN FRIED CHICKEN,Brooklyn,842,ROCKAWAY AVENUE,11212.0,7184841001,Chicken,40.65901698,-73.90802352
RAIN II,Manhattan,1095,SAINT NICHOLAS AVENUE,10032.0,3475834044,Thai,40.83825454,-73.93988862
OASIS CAFE,Brooklyn,2689,CONEY ISLAND AVENUE,11235.0,3476735080,Russian,40.59105335,-73.96062796
XIN GOLDEN HING CHINESE RESTAURANT,Brooklyn,1082,BEDFORD AVENUE,11216.0,7186221685,Chinese,40.68774437,-73.95479416
ROSSI PIZZA,Queens,OOO,LAGUARDIA AIRPORT,11371.0,2159970667,Pizza,40.77441403,-73.87729335
FAIRFIELD INN & SUITES MANHATTAN NEW YORK CENTRAL PARK,Manhattan,538,WEST   58 STREET,10019.0,2127578550,American,40.77062281,-73.99008251
HERE & NOW,Manhattan,99,ALLEN STREET,10002.0,9173781601,CoffeeTea,40.71868098,-73.99065304
THE SPOT CAFE,Queens,4324,43RD AVE,11104.0,7187305676,"Juice, Smoothies, Fruit Salads",40.74517397,-73.92083486
MAREA RESTAURANT,Manhattan,240,CENTRAL PARK SOUTH,10019.0,2125825100,Italian,40.76730036,-73.98013352
GETAWAY,Brooklyn,158,GREEN STREET,11222.0,9293376025,CoffeeTea,40.7336537,-73.95558559
JUMBO PIZZA,Manhattan,3594,BROADWAY,10031.0,2122914991,Pizza,40.82815015,-73.94918069
MURETTE'S,Brooklyn,4618,AVENUE N,11234.0,6464747560,American,40.61871196,-73.93048763
BEANS & VINES,Manhattan,4799,BROADWAY,10034.0,6469820209,American,40.86613266,-73.92558208
KUNST COFFEE HAUS,Queens,21208,41ST AVE,11361.0,7188198076,CoffeeTea,40.76341545,-73.77268035
ENERGY JUICE BAR,Brooklyn,906,KINGS HIGHWAY,11223.0,7189754480,Mexican,40.60681761,-73.96348174
BRODO,Manhattan,1246,LEXINGTON AVENUE,10028.0,6468442996,Soups,40.77808077,-73.95662461
SIPPY CAFE,Brooklyn,153,REMSEN STREET,11201.0,3479779167,CoffeeTea,40.69345116,-73.99218557
DOS TOROS,Manhattan,200,VESEY STREET,10281.0,3472189518,Spanish,40.71443965,-74.01549311
PIZZA HUT,Manhattan,1598,SAINT NICHOLAS AVENUE,10040.0,4692840850,,40.85480775,-73.92970131
TEX'S CHICKEN & BURGERS,Queens,3521,JUNCTION BLVD,11368.0,9178850048,Chicken,40.75303438,-73.87162651
DUNKIN',Bronx,5201,BROADWAY,10463.0,7189338900,Donuts,40.87453128,-73.90989745
"DUNKIN', BASKIN ROBBINS",Bronx,4115,3 AVENUE,10457.0,7182945344,Donuts,40.84455368,-73.8972483
SUSHI YASUDA,Manhattan,204,EAST   43 STREET,10017.0,2129721001,Japanese,40.75125867,-73.97356228
WHITE OAK TAVERN,Manhattan,21,WAVERLY PLACE,10003.0,2122602604,American,40.73025042,-73.9946131
BIARRITZ BAKERY,Bronx,1015,EAST  167 STREET,10459.0,7185421848,Bakery ProductsDesserts,40.82678503,-73.88924335
NISH NUSH,Manhattan,88,READE STREET,10013.0,2129641318,Middle Eastern,40.71555206,-74.00779899
FAMOUS BAGEL BUFFET,Manhattan,510,6 AVENUE,10011.0,2129248911,American,40.73681599,-73.99721788
SUBWAY,Queens,16814,HILLSIDE AVE,11432.0,7182914011,Sandwiches,40.71016651,-73.79430639
BLANK STREET,Manhattan,19,8 AVENUE,10014.0,9175103862,CoffeeTea,40.73781778,-74.0045359
MOMO ASHI,Queens,14705,45TH AVE,11355.0,5186573505,CoffeeTea,40.75552615,-73.81499613
SHAKE SHACK,Queens,90-15,QUEENS BOULEVARD,11373.0,3474033381,Hamburgers,40.73384018,-73.87157703
SAGITARIO BAKERY,Queens,8201,ROOSEVELT AVENUE,11372.0,7183168586,American,40.74764841,-73.88379944
PANDA GARDEN,Staten Island,128,LINCOLN AVENUE,10306.0,7189801189,Chinese,40.57910756,-74.1082096
CROWN CHICKEN & PIZZA,Brooklyn,339,MYRTLE AVENUE,11205.0,7182220151,Chicken,40.69324507,-73.9727127
COMMONS CAFE,Staten Island,2,TELEPORT DRIVE,10314.0,3474664207,American,40.60371321,-74.17927334
NEW HAPPY HOUSE,Queens,11636,SPRINGFIELD BLVD,11411.0,6463316793,Chinese,40.69685595,-73.74337976
BAKERY DE PARIS,Queens,4235,162 STREET,11358.0,7183536808,CoffeeTea,40.75966634,-73.80406882
FUNNY BBQ BAR,Brooklyn,818,54 STREET,11220.0,7186336868,Chinese,40.63849536,-74.00543351
THE BOILING PALACE,Brooklyn,6329,AVENUE N,11234.0,3477131120,Seafood,40.61961642,-73.91621516
BENNYS PIZZA,Brooklyn,1418,AVENUE J,11230.0,9173328335,Pizza,40.62509192,-73.96205957
PANDA EXPRESS #2845,Queens,16002,JAMAICA AVE,11432.0,7182973189,Chinese,40.70377683,-73.79904371
DESIMONES,Manhattan,770,BROADWAY,10003.0,9177572260,American,40.73083486,-73.99140182
PICCOLO SOGNO PIZZERIA-TRATTORIA,Queens,19514,47 AVENUE,11358.0,7182241717,Italian,40.75254672,-73.78581222
LEX RESTAURANT,Manhattan,1370,LEXINGTON AVENUE,10128.0,2128605903,Italian,40.78236686,-73.95349835
NATIONAL DINER,Bronx,135,WESTCHESTER SQ,10461.0,7188241126,American,40.84009759,-73.84267165
ELI'S NIGHT SHIFT,Manhattan,1390,3 AVENUE,10075.0,2128797160,American,40.77438382,-73.95722998
Taim Mediterranean Kitchen,Manhattan,156,WEST   56 STREET,10019.0,6464550667,Mediterranean,40.76453085,-73.97981307
KAN WAH CHINESE RESTAURANT,Queens,5912,MAIN ST,11355.0,7184459799,Chinese,40.74369094,-73.82565715
FAMOUS CALABRIA PIZZERIA,Manhattan,27,SAINT JAMES PLACE,10038.0,2122330009,Pizza,40.7118908,-73.99957075
JOE'S PIZZA,Manhattan,211,8 AVENUE,10011.0,2122433226,Pizza,40.74382615,-73.99955611
NEW SUSHI TATSU,Brooklyn,609,FRANKLIN AVENUE,11238.0,7189025137,Japanese,40.67768227,-73.95542472
PAPA JOHN'S,Brooklyn,1915,NOSTRAND AVENUE,11226.0,7182957272,Pizza,40.63909592,-73.94830554
FIORENTINA RESTAURANT,Manhattan,852,8 AVENUE,10019.0,2129180737,Pizza,40.7631209,-73.98548102
RUBY'S & LITTLE RUBY'S,Manhattan,219,MULBERRY STREET,10012.0,2129255755,American,40.72230164,-73.99613979
THE LOCAL @ JFK,Queens,NKA,JFK INTL AIRPORT 58H,11430.0,7187512899,American,40.64831283,-73.7882815
HEALTH IS LIFE (HERBALIFE),Bronx,1851,ARCHER STREET,10460.0,6468415772,"Juice, Smoothies, Fruit Salads",40.83772979,-73.86495733
TARBOOSH CAFE,Brooklyn,7222,5 AVENUE,11209.0,7186446698,Middle Eastern,40.63146951,-74.02183261
JALLOH FAMILY RESTAURANT,Bronx,3396,3 AVENUE,10456.0,9176595169,African,40.82789881,-73.90716766
KENNY'S RESTAURANT,Brooklyn,1924,NOSTRAND AVENUE,11226.0,7184698888,Chinese,40.63870066,-73.94828783
FETTE SAU,Brooklyn,354,METROPOLITAN AVENUE,11211.0,7189633404,Barbecue,40.71419638,-73.95646795
CELLAR 36,Manhattan,36,MARKET STREET,10002.0,3474478373,,40.71253294,-73.99438368
EAT OFF BEAT,Manhattan,75,9 AVENUE,10011.0,9176716197,Other,40.74186904,-74.00471301
HARRY'S ITALIAN,Manhattan,225,MURRAY ST,10282.0,2126081007,Italian,40.71512319,-74.01479706
KEBAB EXPRESS,Manhattan,235,BLEECKER STREET,10014.0,6464227802,Middle Eastern,40.73046736,-74.00254733
NEW YORK LAGUARDIA AIRPORT MARRIOTT,Queens,10205,DITMARS BLVD,11369.0,7185658900,Continental,40.76879379,-73.86831434
CROWN FRIED CHICKEN,Bronx,1459,UNIONPORT ROAD,10462.0,3475244071,Chicken,40.83539315,-73.85523727
COFFEE & CRUMBS,Manhattan,330,WEST   38 STREET,10018.0,2122390333,American,40.75513159,-73.9926692
HONEY BADGER IN LEFFERTS GARDENS,Brooklyn,67,FENIMORE STREET,11225.0,6466700601,American,40.6581218,-73.95963311
DUNKIN,Queens,13801,QUEENS BLVD,11435.0,5164727100,Donuts,40.70870873,-73.81851709
LAS PANTERAS NEGRAS,Manhattan,2130,2 AVENUE,10029.0,9172164393,Spanish,40.79283224,-73.94080739
HAAGEN-DAZS,Staten Island,55,RICHMOND TERRACE,10301.0,7189817828,Frozen Desserts,40.64411317,-74.07658364
OCCASIONS BANQUET AND CATERING HALL,Queens,12708,MERRICK BOULEVARD,11434.0,7189771861,American,40.68131462,-73.7649716
BLACKBIRD'S,Queens,4119,30 AVENUE,11103.0,7189436899,American,40.7634107,-73.9139651
EL MEXICANO RESTAURANTE AND CAFE,Brooklyn,8609,BAY PARKWAY,11214.0,6468361743,Mexican,40.60156153,-73.99419139
TWO BROTHERS FISH & CHIPS,Brooklyn,896,BROADWAY,11206.0,6469450756,Caribbean,40.69797125,-73.93703675
KABAYAN FILIPINO RESTAURANT,Queens,4912,QUEENS BLVD,11377.0,7186393113,Filipino,40.7427878,-73.9156194
FOTIA MEDITERRANEAN,Manhattan,127,EAST   60 STREET,10022.0,2126637374,Mediterranean,40.76304604,-73.96817164
SOULFUL FOODS,Brooklyn,194,ROCKAWAY AVENUE,11233.0,9175478222,Soul Food,40.67662702,-73.91090853
AZUL TEQUILA MEXICAN RESTAURANT,Bronx,783,LYDIG AVENUE,10462.0,7182390711,Mexican,40.85443915,-73.86444972
MANDEVILLE'S CUISINE,Brooklyn,9802,FOSTER AVENUE,11236.0,7185514413,Caribbean,40.64889982,-73.90478699
BIG GAY ICE CREAM,Manhattan,207,FRONT STREET,10038.0,2122271715,Frozen Desserts,40.70707369,-74.00302975
THE FREAKIN RICAN RESTAURANT,Queens,4306,34TH AVE,11101.0,9293491080,Latin American,40.75547055,-73.91832121
DOUBLE RAINBOW,Queens,8251,BROADWAY,11373.0,7186390567,Bakery ProductsDesserts,40.74206305,-73.88135527
HENRY'S END,Brooklyn,72,HENRY STREET,11201.0,7188341776,American,40.69864704,-73.99244823
GUCKENHEIMER@BARCLAYS,Manhattan,745,7 AVENUE,10019.0,2125263400,American,40.76059821,-73.98361172
TENARES RESTAURANT,Bronx,571,EAST  141 STREET,10454.0,7182925950,Spanish,40.80862362,-73.91578125
GREGORYS COFFEE,Manhattan,356,7 AVENUE,10001.0,3476930487,CoffeeTea,40.74828615,-73.99260138
CHIPOTLE MEXICAN GRILL #3545,Queens,5902,MAURICE AVE,11378.0,7188942457,Other,40.7261904,-73.90870975
EL BUEN GUSTO,Queens,3085,14TH ST,11102.0,3478480435,Mexican,40.76877758,-73.93157952
PANE PASTA,Manhattan,58,WEST    8 STREET,10011.0,5164594538,Italian,40.73330547,-73.99887422
GLASS CEILING EVENTS,Manhattan,1204,BROADWAY,10001.0,6465903724,American,40.74625744,-73.9885379
PAD THAI KITCHEN,Brooklyn,6218,18 AVENUE,11204.0,9175180878,Thai,40.62071147,-73.98858836
THE EGAN PAVILLION,Bronx,5655,ARLINGTON AVENUE,10471.0,7185810070,American,40.90566506,-73.90696456
DAILY PRESS,Brooklyn,38,SOMERS STREET,11233.0,3474421410,CoffeeTea,40.67881432,-73.91053785
NEW GRAND BUFFET,Queens,3445,48TH ST,11101.0,7182788889,Chinese,40.75262997,-73.91488502
EXCUSE MY FRENCH,Manhattan,96,ORCHARD STREET,10002.0,2127809600,French,40.71842567,-73.99006506
MASSERIA CAFFE,Manhattan,235,WEST   48 STREET,10036.0,2129690900,Italian,40.76046948,-73.9856657
CROWN FRIED CHICKEN,Brooklyn,127,WYCKOFF AVENUE,11237.0,7183818400,Chicken,40.70417409,-73.91900465
ALTITUDE BROOKLYN,Brooklyn,250,WYCKOFF AVENUE,11237.0,3475253888,CoffeeTea,40.7005548,-73.91295376
PADO SUSHI,Queens,17153,46TH AVE,11358.0,7183213047,AsianAsian Fusion,40.7535175,-73.79433804
BANGIA,Manhattan,11,EAST   32 STREET,10016.0,2126796790,Korean,40.74683614,-73.98474113
RIVERDALE DINER,Bronx,3657,KINGSBRIDGE AVENUE,10463.0,7188846050,American,40.8850063,-73.90127222
BAGELS FOR YOU,Queens,11329,QUEENS BOULEVARD,11375.0,7187939200,BagelsPretzels,40.71727827,-73.83510937
MI PASO CENTRO AMERICANO RESTAURANT,Manhattan,4129,BROADWAY,10033.0,2129280866,Latin American,40.84581285,-73.93857336
MILK & PULL,Queens,778,SENECA AVENUE,11385.0,9173865873,CoffeeTea,40.70182567,-73.90605636
Mint Heights,Brooklyn,46,HENRY STREET,11201.0,3479160325,Indian,40.69958023,-73.99199371
LEX RESTAURANT,Manhattan,1370,LEXINGTON AVENUE,10128.0,2128605903,Italian,40.78236686,-73.95349835
PROPER FOOD,Manhattan,1211,6 AVENUE,10036.0,2128641804,American,40.75838562,-73.98153673
ITAVOLO,Manhattan,875,3 AVENUE,10022.0,2127511999,American,40.7575953,-73.96945204
PIZZA ETALIA,Manhattan,20,BEAVER STREET,10004.0,2123616160,Pizza,40.7049651,-74.01218714
REVIVE (NORTH CONCOURSE) GATE 25,Queens,0,JFK INTL AIRPORT,11430.0,9292703959,American,40.64831283,-73.7882815
LAVAZZA ESPRESSO BAR,Queens,,JFK INTERNATIONAL AIRPORT,11430.0,7187511634,American,40.64831283,-73.7882815
FIVE GUYS,Queens,21033,26TH AVE,11360.0,7187360999,American,40.77772849,-73.77924971
19 CAFE,Brooklyn,84,MANHATTAN AVENUE,11206.0,7183878777,CoffeeTea,40.70523233,-73.94459321
BREAKFAST BY SALTS CURE,Manhattan,27 1/2,MORTON STREET,10014.0,4432266388,American,40.73102174,-74.00457152
GOLDEN STEAMER,Brooklyn,1964,86 STREET,11214.0,6466396289,Chinese,40.60495971,-73.99886199
"HOTEL BARRIERE: FOUQUET restaurant, PAR ICI cafe, TITSOU lounge, rooftop bar",Manhattan,456,GREENWICH STREET,10013.0,9179652600,French,40.72356391,-74.00952082
CRAVE FISH BAR,Manhattan,428,AMSTERDAM AVENUE,10024.0,6464942750,American,40.78416915,-73.9775863
JOE & THE JUICE,Manhattan,2460,BROADWAY,10025.0,9299308878,"Juice, Smoothies, Fruit Salads",40.79155179,-73.97402654
NEW RONG HANG RESTAURANT,Manhattan,38,ELDRIDGE STREET,10002.0,2126258999,Chinese,40.71571132,-73.99320382
CAFFEE EXPRESSO,Queens,2551,STEINWAY STREET,11103.0,7182745980,CoffeeTea,40.76753734,-73.91201028
WAFLES & DINGES,Manhattan,392,COLUMBUS AVENUE,10024.0,6464541229,American,40.78169026,-73.97568781
TASTE OF SAMARKAND,Queens,6216,WOODHAVEN BLVD,11374.0,7186722121,JewishKosher,40.72651031,-73.87038257
161 DELI & GRILL,Queens,9046,161ST ST,11432.0,7186200004,SandwichesSaladsMixed Buffet,40.70517706,-73.79927031
SHANGHAI 21,Manhattan,21,MOTT STREET,10013.0,2127666311,Chinese,40.71436383,-73.99878436
MALINCHE MEXICAN RESTAURANT,Brooklyn,1018,NOSTRAND AVENUE,11225.0,7187554489,Spanish,40.66358327,-73.9509538
SIX HAPPINESS,Manhattan,1413,2 AVENUE,10021.0,2129888002,Chinese,40.76987432,-73.9575903
"DUNKIN',' BASKIN ROBBINS",Bronx,2702,EAST TREMONT AVENUE,10461.0,7188243131,"Coffee,Tea",40.84265707,-73.84571237
TACO BELL,Queens,8301,37 AVENUE,11372.0,7184789530,Tex-Mex,40.74986012,-73.88324336
HALAL MUNCHIES,Queens,7845,SPRINGFIELD BLVD,11364.0,3475027393,Afghan,40.73670781,-73.74726717
KOTO SUSHI & STEAK,Brooklyn,552,HENRY STREET,11231.0,7182228055,Japanese,40.68223079,-74.00033171
MARUZZELLA,Manhattan,1483,FIRST AVENUE,10075.0,2129888877,Italian,40.77124236,-73.95349531
KONDO JAPANESE RESTAURANT,Queens,2913,BROADWAY,11106.0,3476171236,Japanese,40.76263735,-73.92679196
RANGOON,Brooklyn,500,PROSPECT PLACE,11238.0,9177703373,AsianAsian Fusion,40.67585604,-73.96031453
THE AINSWORTH MIDTOWN,Manhattan,45,EAST   33 STREET,10016.0,7324562397,American,40.74688804,-73.98294383
Eva's x Cinco De Mayo,Manhattan,113,EAST   31 STREET,10016.0,2127251411,Mexican,40.74488422,-73.98201325
FIVESTUY CAFE,Manhattan,5,STUYVESANT OVAL,10009.0,347971056_,Sandwiches,40.73207662,-73.97886676
HAAGEN-DAZS,Staten Island,55,RICHMOND TERRACE,10301.0,7189817828,Frozen Desserts,40.64411317,-74.07658364
MENDY'S,Manhattan,441,PARK AVENUE SOUTH,10016.0,2125761010,JewishKosher,40.74445622,-73.98323317
CARNEGIE DINER AND CAFE,Manhattan,205,WEST   57 STREET,10019.0,9175027279,American,40.76570572,-73.98047334
BETTER GOURMET HEALTH KITCHEN,Bronx,1135C,MORRIS PARK AVENUE,10461.0,7188235200,American,40.85018271,-73.85164093
JIN FENG FISH BALL,Queens,4140,MAIN STREET,11355.0,7188646288,Chinese,40.7571261,-73.82898958
OGLIASTRO,Brooklyn,784,WASHINGTON AVENUE,11238.0,7187893700,Italian,40.6743748,-73.96311294
CHINA DRAGON,Queens,1944A,37TH ST,11105.0,9174329588,Chinese,40.77843407,-73.90191107
CAFE 370,Brooklyn,370,JAY STREET,11201.0,7043286907,American,40.69298411,-73.98727054
MADAM MIKETTE'S,Manhattan,987,2 AVENUE,10022.0,3473791381,American,40.75632393,-73.96747461
CHIPOTLE MEXICAN GRILL #2918,Staten Island,2655,RICHMOND AVENUE,10314.0,7182104606,Tex-Mex,40.58229742,-74.16905259
GUANTANAMERA,Manhattan,939,8 AVENUE,10019.0,2122625354,Latin American,40.76572816,-73.98360324
SANDWICH BAR,Queens,7132,MAIN ST,11367.0,3472852505,Sandwiches,40.72713448,-73.82207105
PANDA CHINESE RESTAURANT,Brooklyn,7323,20 AVENUE,11204.0,7182598868,Chinese,40.61182131,-73.99072928
MONGKHON,Queens,4716,30TH AVE,11103.0,7187771502,Thai,40.76115357,-73.90918506
SEAFOOD HIBACHI,Staten Island,364,BAY STREET,10301.0,7187279888,Chinese,40.6332282,-74.07531371
ROKSTAR CHICKEN,Queens,4202,NORTHERN BLVD,11101.0,3479885553,Chicken,40.75306828,-73.92137767
FLAVAS KITCHEN,Brooklyn,419,UTICA AVENUE,11213.0,3472400688,Caribbean,40.66409208,-73.93155035
DILL & PARSLEY,Manhattan,295,MADISON AVENUE,10017.0,9173403430,Mediterranean,40.75199005,-73.9798638
SOM BO,Manhattan,143,8 AVENUE,10011.0,9173856399,"Asian,Asian Fusion",40.74175111,-74.0010754
GALLOW GREEN,Manhattan,530542,WEST   27 STREET,,2125641662,French,0.0,0.0
CROWN FRIED CHICKEN,Manhattan,3351,BROADWAY,10031.0,5404299125,American,40.82045625,-73.95481928
BEST DELI,Queens,14745,182ND ST,11413.0,7188694668,American,40.65942387,-73.7657879
EXPRESS FORDHAM FRIED SEAFOOD,Bronx,161,EAST  188 STREET,10468.0,9175622040,Seafood,40.86167091,-73.89844371
CLASSIC CAR CLUB,Manhattan,1,PIER 76,10018.0,2122292402,American,40.75848581,-74.00492355
KENNEDY FRIED CHICKEN,Brooklyn,3127,FULTON ST,11208.0,3474756099,Chicken,40.68155025,-73.87985531
DOABA DELI,Manhattan,945,COLUMBUS AVENUE,10025.0,2122222636,Indian,40.79948647,-73.96266771
PICKLER & CO,Manhattan,216,EAST   45 STREET,10017.0,4129521977,American,40.75242767,-73.97245737
DOMINOS,Queens,2553,STEINWAY ST,11103.0,7185453030,Pizza,40.76753734,-73.91201028
EL VALLE.COM RESTAURANT,Bronx,549,COMMONWEALTH AVENUE,10473.0,3478798647,Spanish,40.81568896,-73.86450728
LEBRON RESTAURANT,Brooklyn,1567A,PITKIN AVENUE,11212.0,7183429070,Spanish,40.66895074,-73.91568433
EL BASURERO BAR REST.,Queens,3217,STEINWAY ST,11103.0,7185457077,Spanish,40.75849876,-73.91936427
MILENIO RESTAURANT BAR INC,Queens,9707,37TH AVE,11368.0,7186515870,Latin American,40.75183833,-73.86978448
BLUE MARBLE ICE CREAM,Manhattan,2580,BROADWAY,10025.0,7188585551,Frozen Desserts,40.79548982,-73.97115012
DA SPOT DELI,Bronx,352,WILLIS AVENUE,10454.0,7184961339,American,40.81154781,-73.92109157
LECHONERIA NY,Queens,5227,69TH ST,11378.0,9344443461,Latin American,40.73272849,-73.8958879
SUBWAY,Brooklyn,1567,FLATBUSH AVENUE,11210.0,7184210175,Sandwiches,40.6325272,-73.94732348
CRAZY WILLY'S,Queens,11710,JAMAICA AVE,11418.0,5166320496,Latin American,40.69957048,-73.83235834
MANOLO TAPAS RESTAURANT,Manhattan,4161,BROADWAY,10033.0,2129239100,Tapas,40.84700387,-73.93821442
CROWN FRIED CHICKEN,Brooklyn,167,MARCUS GARVEY BOULEVARD,11221.0,7182246030,Chicken,40.6925656,-73.93993754
Burger Man,Manhattan,740,7 AVENUE,10019.0,3474715496,American,40.76036219,-73.98380671
BONBON LAKAY,Brooklyn,351,5 AVENUE,11215.0,3474576551,Caribbean,40.67181052,-73.98408784
DONG YUE SEAFOOD RESTAURANT,Queens,13614,38TH AVE,11354.0,7187990098,Chinese,40.76094057,-73.83033342
PRIMA PIZZA,Queens,22270,BRADDOCK AVE,11428.0,7187406546,Pizza,40.72841477,-73.73582886
LENWICH,Manhattan,792,LEXINGTON AVENUE,10065.0,6466495594,SoupsSaladsSandwiches,40.7637676,-73.96707026
EL NUEVO TAINO,Manhattan,2228,AMSTERDAM AVENUE,10032.0,6465446849,Latin American,40.84144444,-73.93577282
RED MANGO,Queens,6147,188TH ST,11365.0,3472570893,Frozen Desserts,40.73938548,-73.78577169
TOM'S RESTAURANT,Manhattan,2880,BROADWAY,10025.0,2128646137,American,40.80549019,-73.96572025
SUSHI GINZA,Brooklyn,1845,NOSTRAND AVENUE,11226.0,7188160200,Japanese,40.64067699,-73.94847366
EIGHT BEAUTITUDES KOREAN RESTAURANT #18,Queens,136-20,ROOSEVELT AVENUE,11354.0,9175637751,Korean,40.75977791,-73.82923543
REBEL,Manhattan,29,CLINTON STREET,10002.0,6467264245,American,40.7204589,-73.98436479
JAYSE CATERING,Brooklyn,261,HURON STREET,11222.0,9172027252,American,40.7334293,-73.95053776
EL CANELAZO BAR RESTAURANT,Queens,8004,ROOSEVELT AVENUE,11372.0,7184290016,Latin American,40.74744163,-73.88561875
NAYA,Manhattan,285,MADISON AVENUE,10017.0,6466449901,Middle Eastern,40.75174854,-73.98003712
POPEYES,Queens,21903,N CONDUIT AVE,11413.0,7184135947,Chicken,40.66643834,-73.75728864
DAE BAK RESTAURANT,Queens,14606,34 AVENUE,11354.0,7183580002,Korean,40.7672419,-73.82087323
VYBZ ASTORIA,Queens,2826,STEINWAY ST,11103.0,9176485620,Bottled Beverages,40.76521398,-73.91392305
STACKED,Manhattan,1654,3 AVENUE,10128.0,2404136031,,40.78299983,-73.95093772
AMICI RISTORANTE,Manhattan,165,MULBERRY STREET,10013.0,3474696696,Italian,40.71982864,-73.99711036
GOLDEN STEAMER,Brooklyn,1964,86 STREET,11214.0,6466396289,Chinese,40.60495971,-73.99886199
MUNA,Manhattan,152,EAST   46 STREET,10017.0,6465257906,Indian,40.75369875,-73.97352883
RIVERDALE DINER,Bronx,3657,KINGSBRIDGE AVENUE,10463.0,7188846050,American,40.8850063,-73.90127222
NORA PIZZA,Bronx,2456,EASTCHESTER ROAD,10469.0,6464921148,Pizza,40.86191913,-73.84331758
LA NUEVA CARICIA RESTAURANT,Manhattan,1693,AMSTERDAM AVENUE,10031.0,2124913983,Mexican,40.82439765,-73.94820077
TRINIJAM BK ROTI BAR & GRILL,Brooklyn,9501,FLATLANDS AVENUE,11236.0,7189860215,Caribbean,40.64265877,-73.90221953
BOBBA HUBBA,Queens,4036,75TH ST,11373.0,2123658269,CoffeeTea,40.74591464,-73.89031664
ONE ZO SNOWSHOW,Queens,4215,CRESCENT ST,11101.0,3472249851,CoffeeTea,40.75015959,-73.94094651
"JIMMY'S HOUSE, IF CHA",Manhattan,162,EAST   25 STREET,10010.0,2127257888,Chinese,40.74027311,-73.98262436
LIMA RESTAURANT,Queens,8507,NORTHERN BLVD,11372.0,9178326682,Peruvian,40.75587304,-73.88240259
NEW EAST GARDEN RESTAURANT,Manhattan,1685,1 AVENUE,10128.0,2128315900,Chinese,40.77784968,-73.94867402
ADOM CUISINE,Bronx,613,EAST TREMONT AVENUE,10457.0,7182940792,African,40.84622391,-73.89279636
LUNATICS ICE CREAM PARLOR,Brooklyn,1224,SURF AVENUE,11224.0,6463692370,Frozen Desserts,40.57553391,-73.98035277
SOM BO,Manhattan,143,8 AVENUE,10011.0,9173856399,"Asian,Asian Fusion",40.74175111,-74.0010754
GO CATERING,Manhattan,58,LISPENARD STREET,10013.0,2129244502,American,40.71955416,-74.00295095
PAN RICO AMBATENO,Brooklyn,302,KNICKERBOCKER AVENUE,11237.0,9179660460,Bakery ProductsDesserts,40.70171786,-73.9234942
TIFFANY CAFE,Manhattan,6,EAST   57 STREET,10022.0,2126135511,American,40.76277293,-73.97354686
SEPTEMBER,Brooklyn,83,SARATOGA AVENUE,11233.0,5086491703,CoffeeTea,40.68391925,-73.91738159
CENTRAL DINER,Queens,NKA,JFK INTERNATIONAL AIRPORT,11430.0,7187514756,American,40.64831283,-73.7882815
SHUN FOOK CHINESE RESTAURANT,Queens,13507,LEFFERTS BOULEVARD,11420.0,7188437074,Chinese,40.67026094,-73.82095084
SIZZLE SHAWARMA & FALAFEL BAR,Queens,18615,UNION TPKE,11366.0,7184874696,JewishKosher,40.72870803,-73.78270685
SAMUDRA INDIAN RESTAURANT,Queens,7518,37TH AVE,11372.0,7182551757,Indian,40.7490741,-73.89056045
BOUCHERIE,Manhattan,225,PARK AVENUE SOUTH,10003.0,2123530200,French,40.73735891,-73.98842397
GNOCCO,Manhattan,337,EAST   10 STREET,10009.0,2126771913,Italian,40.72711712,-73.98049913
THE TAP ROOM,Manhattan,1,WEST   54 STREET,10019.0,2125723420,American,40.76124461,-73.97585413
GOLD STAR BEER COUNTER,Brooklyn,340,STERLING PLACE,11238.0,7736776855,,40.67533936,-73.96686534
BLEND,Queens,4704,VERNON BOULEVARD,11101.0,7187292800,Latin American,40.74528782,-73.95325366
ZUCKERS BAGELS,Manhattan,370,LEXINGTON AVENUE,10017.0,2126611080,Sandwiches,40.75063902,-73.97664119
HIGHLANDERS (STAND 318),Bronx,1,EAST  161 STREET,10451.0,9172843260,American,40.82902843,-73.92849646
MIDMUS,Brooklyn,135,NORTH    5 STREET,11249.0,7183218981,AsianAsian Fusion,40.71693943,-73.95924744
GOTAN,Manhattan,130,FRANKLIN STREET,10013.0,2124315200,Mediterranean,40.71912306,-74.00686146
GRUENEBAUM'S BAKERY & CAFE,Bronx,5663,RIVERDALE AVENUE,10471.0,7184324779,JewishKosher,40.90609655,-73.90431219
NUTRICION PILAR,Bronx,117,EAST  184 STREET,10468.0,3479947782,Other,40.85979784,-73.90025416
KENNEDY FRIED CHICKEN,Bronx,3275,WESTCHESTER AVENUE,10461.0,6317469496,Chicken,40.85266075,-73.82770196
QDOBA MEXICAN EATS,Staten Island,1275,WOODROW ROAD,10309.0,7189661355,Mexican,40.54173533,-74.20713763
FORTUNE HOUSE,Brooklyn,82,HENRY STREET,11201.0,3475650803,Chinese,40.69839452,-73.99257087
BILL'S BAR,Brooklyn,6326,AVENUE N,11234.0,7186765699,American,40.61959182,-73.91635568
SARAVANA BHAVAN,Manhattan,81,LEXINGTON AVENUE,10016.0,2126847755,Indian,40.74149738,-73.98328083
CEMITAS EL TIGRE,Queens,4514,48TH AVE,11377.0,2129207963,Mexican,40.73937656,-73.92016335
TAQUERIA DIANA,Manhattan,524,9 AVENUE,10018.0,6466844541,Mexican,40.75660834,-73.99393959
POPEYES,Brooklyn,9216,CHURCH AVENUE,11236.0,7185660566,Chicken,40.65384262,-73.91829474
NINO'S PIZZA,Brooklyn,9110,3 AVENUE,11209.0,7186800222,Pizza,40.61972203,-74.03259545
EWE'S DELICIOUS TREATS AFRICAN RESTAURANT,Brooklyn,453,PENNSYLVANIA AVENUE,11207.0,9293373525,African,40.6660236,-73.89435953
AMBATENO RESTAURANT,Brooklyn,338,KNICKERBOCKER AVENUE,11237.0,9172515489,Latin American,40.70102536,-73.9222796
DOMINICAN FOOD CORP,Staten Island,2180,FOREST AVENUE,10303.0,7184424616,Latin American,40.62670425,-74.16225953
CAFE GOSSIP,Brooklyn,1687,86 STREET,11214.0,7189754688,American,40.60879956,-74.00518618
PANKO EXPRESS,Brooklyn,7802,FLATLANDS AVENUE,11236.0,7189688399,Chinese,40.63461275,-73.9146362
ARCHDIOCESES OF NY,Manhattan,1011,1 AVENUE,10022.0,6467942280,American,40.75726425,-73.96369132
LUKE'S LOBSTER,Manhattan,242,EAST   81 STREET,10028.0,2122494241,Seafood,40.7751626,-73.95533033
HEALTHY LIVING HERBALIFE,Manhattan,167,EAST  106 STREET,10029.0,6464181486,"Juice, Smoothies, Fruit Salads",40.79194255,-73.94555364
ADDEOS OF THE BRONX,Bronx,1056,MORRIS PARK AVENUE,10461.0,7188245036,Pizza,40.84893187,-73.85437996
ZHANG LIANG HOT POT,Queens,13649,ROOSEVELT AVE,11354.0,3474296999,Chinese,40.75998263,-73.82847686
MLB &Q BURGER,Queens,4307,MAIN ST,11355.0,9294024931,SandwichesSaladsMixed Buffet,40.75228091,-73.82670655
JERSEY SHORE SUSHI CO,Brooklyn,1901,CONEY ISLAND AVENUE,11230.0,7184191877,,40.61104703,-73.96256821
IHOP,Brooklyn,253,LIVINGSTON STREET,11201.0,7182224467,PancakesWaffles,40.68885278,-73.98373399
CHINA GLATT,Brooklyn,4413,13 AVENUE,11219.0,7184382576,JewishKosher,40.6376798,-73.98933489
WARREN HALL COFFEE BAR,Manhattan,1125,AMSTERDAM AVENUE,10025.0,2128548641,CoffeeTea,40.80634791,-73.96137789
GLEN PATRICK'S PUB,Queens,5373,65 PLACE,11378.0,7184298334,American,40.72925198,-73.90022301
EMPANADAS ON THE HILL,Bronx,337,EAST GUN HILL ROAD,10467.0,7185145397,Latin American,40.87881677,-73.87311849
"DUNKIN',' BASKIN ROBBINS",Brooklyn,8301,FLATLANDS AVENUE,11236.0,7185314469,Donuts,40.63699793,-73.91097965
SWEETORY,Queens,7128,ROOSEVELT AVE,11372.0,3479877351,"Coffee,Tea",40.74654681,-73.89417361
PAK CHEE,Manhattan,317,EAST    5 STREET,10003.0,3475831710,Vegan,40.72651433,-73.98835009
BURGER KING,Queens,9202,ATLANTIC AVE,11416.0,7188458710,Hamburgers,40.68768862,-73.85041731
YUMMY 88,Brooklyn,130,WILSON AVENUE,11237.0,7189287777,ChineseCuban,40.7007505,-73.92583593
DESI GRILL,Brooklyn,46,WYCKOFF AVENUE,11237.0,7183819777,Indian,40.70580633,-73.92165364
JUICE N' GO,Brooklyn,8,KINGSTON AVENUE,11213.0,3472404710,"Juice, Smoothies, Fruit Salads",40.67967133,-73.94124352
JOE'S GINGER RESTAURANT,Manhattan,25,PELL STREET,10013.0,2122850333,Chinese,40.71484416,-73.99820719
173 WEBSTER CAFE,Bronx,1692,WEBSTER AVENUE,10457.0,7186180832,Latin American,40.84321139,-73.90344521
DESI INDO-CHINESE,Manhattan,2036,2 AVENUE,10029.0,9143882382,Indian,40.78977846,-73.9430347
BAREBURGER,Manhattan,1681,1 AVENUE,10128.0,2123901344,Hamburgers,40.77778108,-73.94872101
THE UPTOWN GARRISON,Manhattan,821,WEST  181 STREET,10033.0,9172614680,American,40.85119565,-73.93928407
MO LI SHANGHAI CHINESE RESTAURANT,Queens,8334,BROADWAY,11373.0,7182101688,Chinese,40.74035886,-73.87902351
EWE'S DELICIOUS TREATS AFRICAN RESTAURANT,Brooklyn,453,PENNSYLVANIA AVENUE,11207.0,9293373525,African,40.6660236,-73.89435953
SAVVY BISTRO AND BAR,Brooklyn,710,NOSTRAND AVENUE,11216.0,3475337880,Caribbean,40.67443848,-73.95008057
VOYAGER ESPRESSO,Manhattan,110,WILLIAM STREET,10038.0,2122272744,CoffeeTea,40.70877526,-74.00719584
KING SUBS,Brooklyn,668,3 AVENUE,11232.0,9172385476,Sandwiches,40.66442814,-73.99718486
NUEVA AMBATENITA LA ESQUINA DEL SABOR,Queens,3924,108 STREET,11368.0,7184782215,Latin American,40.75125749,-73.85905533
MATTO ESPRESSO,Manhattan,299,BROADWAY,10007.0,6462087786,"Coffee,Tea",40.71503892,-74.00559128
LETY BAKERY,Queens,7707,37 AVENUE,11372.0,7185076539,Bakery ProductsDesserts,40.74927826,-73.88879524
NAVA SEAFOOD,Manhattan,366,AUDUBON AVENUE,10033.0,6463296515,Latin American,40.85017286,-73.93129667
MILK & HOPS,Manhattan,166,9 AVENUE,10011.0,2129891999,American,40.74471543,-74.00260562
SUN HING,Brooklyn,1167,WILLMOHR STREET,11212.0,7183458015,Chinese,40.658312,-73.91571225
LUCKY CHEN RESTAURANT,Brooklyn,1266,BROADWAY,11221.0,7185733780,Chinese,40.691113,-73.92492356
MURPHY'S BAR,Queens,4501,23RD AVE,11105.0,3472423786,Irish,40.76896469,-73.90521036
BUTTERLY BAKESHOP,Brooklyn,263,PROSPECT PARK WEST,11215.0,9292763617,Bakery ProductsDesserts,40.65861056,-73.98190325
RIBALTA MO,Manhattan,2,PENN PLZ,10121.0,6462698671,Italian,40.75000977,-73.99134519
SUN HING RESTAURANT,Brooklyn,623,LIVONIA AVENUE,11207.0,9172790376,Chinese,40.66473066,-73.89418856
CALEDONIA,Manhattan,1609,2 AVENUE,10028.0,2127344300,Irish,40.77624034,-73.95294661
MADERA CUBAN GRILL,Queens,4729,VERNON BOULEVARD,11101.0,7186061236,Latin American,40.74467856,-73.95343814
SANDWICH HOUSE ITALIAN RESTAURANT,Manhattan,17,ANN STREET,10038.0,2125666886,Sandwiches,40.71090241,-74.00791026
RITZ DINER,Manhattan,1133,1 AVENUE,10065.0,2123194993,American,40.76157522,-73.9605376
AIRPORT BAGELS & DELI,Queens,8420,ASTORIA BLVD,11370.0,6468069605,American,40.76461209,-73.8848455
SUSHI ME,Queens,1418,150TH ST,11357.0,7183579999,Japanese,40.78832659,-73.81362985
JUICES FOR LIFE,Bronx,1028,CASTLE HILL AVENUE,10472.0,3472819844,"Juice, Smoothies, Fruit Salads",40.82821464,-73.85016523
CHICKEN FEASTIN,Brooklyn,561,GATES AVENUE,11221.0,7186769992,Chicken,40.68697929,-73.94398464
CESTRAS PIZZA III,Bronx,44,WESTCHESTER SQ,10461.0,3476913492,Pizza,40.8420399,-73.84397899
NO.1 FAVOR TASTE RESTAURANT,Brooklyn,732,61 STREET,11220.0,7184390578,Chinese,40.63572543,-74.01153672
WALTER'S COTTAGE,Manhattan,500,WEST   43 STREET,10036.0,9178868425,American,40.7603248,-73.99507632
QUARTER BAR,Brooklyn,676,5 AVENUE,11215.0,7187880989,American,40.6617765,-73.99298587
KICK AXE THROWING,Brooklyn,622,DEGRAW STREET,11217.0,8335425293,American,40.67914721,-73.98342992
THE ORIGINAL AMERICAN CHICKEN & BAKERY INTL TWO,Queens,4012,QUEENS BLVD,11104.0,7184339660,Chicken,40.74376807,-73.92404118
JIMBO'S HAMBURGER PALACE,Bronx,4137,WHITE PLAINS ROAD,10466.0,7185470003,Hamburgers,40.89168873,-73.85832963
DUNKIN'  BASKIN ROBBINS,Manhattan,55,WEST   55 STREET,10019.0,2122454655,Donuts,40.76239482,-73.97663705
URBAN PRESS,Queens,7301,MAIN ST,11367.0,3477545629,JewishKosher,40.72456325,-73.82070697
EL DIABLO TAQUERIA,Brooklyn,41A,NEWKIRK PLZ,11226.0,3476451685,Mexican,40.63481966,-73.96274938
JERSEY MIKES,Staten Island,2795,RICHMOND AVENUE,10314.0,9294739898,Sandwiches,40.57854998,-74.16959385
SALTY DOG RESTAURANT,Brooklyn,7509,3 AVENUE,11209.0,7182380030,American,40.63130627,-74.02784192
MURRAY'S CHEESE BARCHEESE SHOP,Queens,2830,JACKSON AVE,11101.0,3479902130,American,40.74863476,-73.93813277
CAFE GRUMPY,Brooklyn,383,7 AVENUE,11215.0,7184994404,American,40.66529699,-73.98289629
GUSTO LATINO CAFE REST 1,Brooklyn,583,DRIGGS AVENUE,11211.0,9175305583,Latin American,40.71628269,-73.95722412
GREGORY'S COFFEE,Manhattan,80,BROAD STREET,10004.0,6468838484,CoffeeTea,40.70431465,-74.01158109
ANTONIO'S,Queens,7602A,21ST AVE,11370.0,7187289200,Italian,40.77042566,-73.89355787
KOPITIAM,Manhattan,151,EAST BROADWAY,10002.0,6468947081,AsianAsian Fusion,40.71398195,-73.99083045
HAMPTON INN CHELSEA,Manhattan,108,WEST   24 STREET,10011.0,2124141000,American,40.74380123,-73.99291224
COCINA LATINA,Manhattan,4986,BROADWAY,10034.0,2125442223,Latin American,40.86826649,-73.91920173
STAND 107,Bronx,1,EAST  161 STREET,10451.0,9172843260,Sandwiches,40.82902843,-73.92849646
POPPY'S CATERING & EVENTS,Brooklyn,243,DEGRAW STREET,11231.0,6464592716,American,40.68422346,-73.99694605
GOSUKE,Manhattan,235,WEST   35 STREET,10001.0,6468161741,Japanese,40.75212872,-73.99124386
J & J RESTAURANT & CUCHIFRITOS,Bronx,718,EAST TREMONT AVENUE,10457.0,7185833333,Latin American,40.84509092,-73.89051392
SIT & WONDER,Brooklyn,688,WASHINGTON AVENUE,11238.0,7186220299,CoffeeTea,40.67732287,-73.96368454
MAMAN,Manhattan,1424,3 AVENUE,10028.0,6464767660,"Coffee,Tea",40.77541282,-73.95647832
EL CANGREJAL RESTAURANT,Queens,10011,37TH AVE,11368.0,7186512425,Latin American,40.75257354,-73.86704718
ABOVE BALLROOM,Staten Island,1100,SOUTH AVENUE,10314.0,7184772400,American,40.61246681,-74.1754359
SAGITARIO BAKERY,Queens,8201,ROOSEVELT AVENUE,11372.0,7183168586,American,40.74764841,-73.88379944
FOREST HILLS COFFEE SHOP,Queens,9607,METROPOLITAN AVE,11375.0,716_350422,CoffeeTea,40.7113177,-73.85631215
DON GOYO,Queens,4335,91ST PL,11373.0,7186998866,Mexican,40.7428896,-73.87398102
TWO HANDS FRESH CORN DOGS,Manhattan,95,MACDOUGAL STREET,10012.0,9176756744,Korean,40.72939143,-74.00100665
PFIZER CAFE,Manhattan,235,EAST   42 STREET,10017.0,2127332378,American,40.75020732,-73.97310794
DOWNTOWN GALWAY HOOKER,Manhattan,133,7 AVENUE SOUTH,10014.0,2126756220,Irish,40.7345653,-74.00224439
DUNKIN DONUTS,Manhattan,351,GRAND STREET,10002.0,6463987070,Donuts,40.71678698,-73.98943762
Grand Slam,Queens,13101,FOWLER AVE,11355.0,9176810062,Chinese,40.75182363,-73.83299872
STND COFFEE,Brooklyn,1059,MANHATTAN AVENUE,11222.0,3479936113,CoffeeTea,40.73490784,-73.9550435
ARABICA COFFEE,Brooklyn,20,OLD FULTON STREET,11201.0,7188652551,CoffeeTea,40.70277802,-73.99415008
LA VILLA PIZZARIA,Brooklyn,1529,86 STREET,11228.0,7182563100,Pizza,40.61102261,-74.00887082
THE BEST OF NEW YORK FOOD,Manhattan,150,WATER STREET,10005.0,2129521890,American,40.70598938,-74.00624334
SMASHBURGER #1712,Brooklyn,528,GATEWAY DRIVE,11239.0,7188356900,Hamburgers,40.652595,-73.87673262
ALICE,Manhattan,126,WEST   13 STREET,10011.0,2126914886,Italian,40.73705755,-73.99830041
STARBUCKS,Queens,6151,188 STREET,11365.0,7182640658,CoffeeTea,40.73937721,-73.78575728
TOKYO SUSHI JAPANESE RESTAURANT,Staten Island,1710,VICTORY BOULEVARD,10314.0,7187271771,Japanese,40.61321288,-74.12062632
DI DI RESTAURANT,Brooklyn,2318,NOSTRAND AVENUE,11210.0,7189517459,Chinese,40.62815743,-73.94714681
MR. SIMI #8 KITCHEN,Brooklyn,1658,BATH AVENUE,11214.0,7182327539,Chinese,40.60555773,-74.00896013
TEQUILITAS MEXICAN RESTAURANT,Brooklyn,5213,4 AVENUE,11220.0,7184924303,Mexican,40.64520564,-74.01387342
CAFE D'AVIGNON,Manhattan,485,7 AVENUE,10018.0,9177153556,Bakery ProductsDesserts,40.75245795,-73.98954383
T-SWIRL CREPE,Queens,7023,AUSTIN ST,11375.0,9176607178,Japanese,40.72068349,-73.84621228
NATIONAL BAKERY,Bronx,944,INTERVALE AVENUE,10459.0,7188613671,Bakery ProductsDesserts,40.82127246,-73.89687611
THE BIRRIA ON THE BLOCK,Queens,10402,NORTHERN BLVD,11368.0,3474307698,Mexican,40.75768402,-73.86447051
MARTHA'S COUNTRY BAKERY,Queens,3621,DITMARS BOULEVARD,11105.0,7185459737,Bakery ProductsDesserts,40.77420942,-73.90797573
NICKY'S COFFEE SHOP,Bronx,3140,BAINBRIDGE AVENUE,10467.0,7182319516,American,40.87462408,-73.87938215
SWEETFISH,Brooklyn,1212,AVENUE Z,11235.0,7186767878,Seafood,40.58758016,-73.95773532
GANDA SUSHI,Queens,8008,SURREY PL,11432.0,6467061421,Japanese,40.72634064,-73.78931345
JUICE FOR LIFE,Queens,3407,FRANCIS LEWIS BOULEVARD,11358.0,7184611480,American,40.76589027,-73.78944778
CHIPOTLE MEXICAN GRILL,Manhattan,274,MADISON AVENUE,10016.0,2126891245,Tex-Mex,40.75124083,-73.98043429
KHALIL BIRYANI HOUSEKHALIL HALAL CHINESE,Bronx,2060,MCGRAW AVENUE,10462.0,9296248398,Afghan,40.83549045,-73.85622002
LEYLA,Manhattan,108,WEST   74 STREET,10023.0,3473347939,Mediterranean,40.77889661,-73.97826329
CHINA STAR QUEENS CHINESE RESTAURANT,Queens,105-38,ROCKAWAY BOULEVARD,11417.0,7188357787,Chinese,40.67862917,-73.83328007
THE SHACK,Queens,21232,48TH AVE,11364.0,7185395115,CreoleCajun,40.75532703,-73.76876651
KUNG FU TEA,Manhattan,234,CANAL STREET,10013.0,6465082844,"Juice, Smoothies, Fruit Salads",40.71784146,-73.99973666
EL GALLO NEGRO,Queens,4134C,CRESCENT ST,11101.0,3475071977,Mexican,40.75173162,-73.93956637
DUNKIN,Brooklyn,40,EMPIRE BOULEVARD,11225.0,7182849305,Donuts,40.66325233,-73.96120875
NEW SAN FRANCISCO RESTAURANT,Manhattan,59,AUDUBON AVENUE,10032.0,2125684040,Latin American,40.84061963,-73.9382529
Y J FRIED FISH,Queens,8901,165 STREET,11432.0,7185261202,Seafood,40.707381,-73.79609321
POKE BOWL STATION,Brooklyn,237,FLATBUSH AVENUE,11217.0,3473350700,Hawaiian,40.6811467,-73.97533522
MCDONALD'S,Queens,16601,BAISLEY BLVD,11434.0,7185284219,Hamburgers,40.67969473,-73.77710219
KENNEDY FRIED CHICKEN,Bronx,2273,CROTONA AVENUE,10457.0,7183656094,Chicken,40.85141223,-73.8850778
GENESIS RESTAURANT,Queens,5627,58TH ST,11378.0,9293375300,Latin American,40.72460135,-73.91244961
KARAZISHI BOTAN,Brooklyn,255,SMITH STREET,11231.0,3477631155,Japanese,40.68317203,-73.99285741
BITES OF XI'AN,Manhattan,84,EAST   10 STREET,10003.0,9174095535,Chinese,40.73102412,-73.98980699
EL RIO GRANDE,Manhattan,160,EAST   38 STREET,10016.0,2128670922,Mexican,40.74841303,-73.97672137
ECLAIR LAND,Staten Island,2655,RICHMOND AVENUE,10314.0,7186408930,Turkish,40.58229742,-74.16905259
HALAL FRIED CHICKEN & PIZZA,Brooklyn,141,PENNSYLVANIA AVENUE,11207.0,3474046843,Chicken,40.67420221,-73.89645188
MARIAMS KITCHEN,Brooklyn,1140,UTICA AVENUE,11203.0,3475250472,African,40.64501472,-73.92967456
PRONTO RESTAURANT,Staten Island,3297,RICHMOND AVENUE,10312.0,7183562442,Pizza,40.55829934,-74.16928314
PRINCE ST PIZZA,Manhattan,27,PRINCE STREET,10012.0,2129664100,Pizza,40.72292739,-73.99463895
THAI 101,Queens,39-15,BELL BOULEVARD,11361.0,7186318600,Thai,40.76505221,-73.77174336
"DUNKIN', BASKIN ROBBINS",Bronx,2172,WESTCHESTER AVENUE,10462.0,7189181235,"Coffee,Tea",40.83411046,-73.85237436
THAI LEAF,Brooklyn,611,86 STREET,11209.0,6464967370,Thai,40.62031148,-74.02424598
Cake House Win,Queens,15024,NORTHERN BLVD,11354.0,9174166255,CoffeeTea,40.76518674,-73.81438798
CAKOR RESTAURANT,Bronx,632,EAST  186 STREET,10458.0,7187332300,Eastern European,40.85412588,-73.8869492
SO GONG DONG KOREAN BBQ,Manhattan,350,3 AVENUE,10010.0,7185518343,Korean,40.74047612,-73.98195671
EL COYOTE RESTAURANT,Queens,8018,NORTHERN BOULEVARD,11372.0,7186514874,Mexican,40.75537533,-73.88696585
DELICIOUS WOK,Queens,5952,SUMMERFIELD ST,11385.0,7183668882,Chinese,40.69994079,-73.89735664
NB WING WONG,Manhattan,42,BOWERY,10013.0,6464907468,Chinese,40.71562638,-73.99645402
BKK EATERY,Manhattan,138,EAST   34 STREET,10016.0,2122133317,Thai,40.74625891,-73.97942164
CLOUD SOCIAL,Manhattan,6,WEST   32 STREET,10001.0,2129041092,American,40.74737428,-73.98605109
VIV THAI RESTAURANT,Manhattan,717,9 AVENUE,10019.0,2125815999,Thai,40.76271237,-73.98952416
CHINA HOUSE,Bronx,1572,EAST  174 STREET,10472.0,7188936187,Chinese,40.83382994,-73.87758809
MAISON DE VIENNOISERIES,Brooklyn,8101,5 AVENUE,11209.0,3479728955,Bakery ProductsDesserts,40.62492816,-74.02448542
LE BAOBAB GOUYGI II RESTAURANT,Brooklyn,1235,FULTON STREET,11216.0,7184844866,African,40.6805603,-73.95233656
MCFADDENS,Queens,36-02,126 STREET,11368.0,7186512220,American,40.75828483,-73.84474265
LUCKY JADE BAKERY,Brooklyn,6104,7 AVENUE,11220.0,7186836863,Bakery ProductsDesserts,40.63614254,-74.01247357
STICK TO MY POT,Manhattan,224,WEST   35 STREET,10001.0,6468222203,AsianAsian Fusion,40.75202715,-73.99105258
INTREPID SEA-AIR-SPACE MUSEUM,Manhattan,1,INTREPID SQ,,6463815322,American,0.0,0.0
YOFRESH YOGURT CAFE,Queens,5456,MYRTLE AVE,11385.0,7183812116,Frozen Desserts,40.69979414,-73.90896603
ELYSIAN FIELDS CAFE,Manhattan,1207,AMSTERDAM AVENUE,10027.0,2128371389,Greek,40.80896574,-73.95947264
BLUE FIN BAR & GRILL,Brooklyn,633,NOSTRAND AVENUE,11216.0,3473515275,Seafood,40.67551987,-73.94995719
HAAGEN-DAZS,Staten Island,55,RICHMOND TERRACE,10301.0,7189817828,Frozen Desserts,40.64411317,-74.07658364
LOS CHILES BAR & RESTAURANT,Queens,9607,37TH AVE,11368.0,6462200043,Peruvian,40.75159231,-73.87067285
T.G.I. FRIDAY'S,Queens,7000,AUSTIN ST,11375.0,7187933263,American,40.72088466,-73.84681068
THE LIBERTY CAFE (S.I. NEWHOUSE),Manhattan,12,WHITEHALL FERRY TERMINAL,10004.0,7182738400,BagelsPretzels,40.70096037,-74.01313491
LOS TAQUITOS DEL TIO,Queens,3215,JUNCTION BLVD,11369.0,7185051583,Spanish,40.75798612,-73.87427722
DUNKIN,Brooklyn,4912,FORT HAMILTON PARKWAY,11219.0,3474924294,Donuts,40.63825942,-73.99783453
Thread Lobby Bar,Manhattan,218,WEST   35 STREET,10001.0,6468502850,Bottled Beverages,40.75197774,-73.99092987
SOHO ROOM,Manhattan,201,SPRING STREET,10012.0,9738654093,American,40.72528796,-74.00344909
EL REY II RESTAURANT,Brooklyn,1064,LIBERTY AVENUE,11208.0,7182355522,Latin American,40.67827587,-73.86992507
KIRKLAND & ELLIS CONFERENCE ROOMS,Manhattan,601,LEXINGTON AVENUE,10022.0,6154966788,American,40.75845753,-73.97091355
THAI SON VIETNAMESE CUISINE,Manhattan,89,BAXTER STREET,10013.0,2127322822,Southeast Asian,40.71689726,-73.99969698
VINNY'S LUNCHBOX,Brooklyn,171,AVENUE U,11223.0,__________,American,40.59646247,-73.97791242
ANDAZ 5TH AVENUE,Manhattan,485,5 AVENUE,10017.0,6462136785,American,40.75300584,-73.98121339
BIRDLAND,Manhattan,315,WEST   44 STREET,10036.0,2125813080,American,40.75883403,-73.98954643
BELLINI,Manhattan,483,COLUMBUS AVENUE,10024.0,2127244615,Italian,40.78471997,-73.97344422
POPEYES LOUISIANA KITCHEN,Manhattan,934,8 AVENUE,10019.0,7184271387,Chicken,40.76561289,-73.98366463
DOMINOS,Brooklyn,775,FLATBUSH AVENUE,11226.0,9177211620,Pizza,40.65393048,-73.95950952
PARIS OVEN,Queens,3812,30TH AVE,11103.0,3475381240,Bakery ProductsDesserts,40.76419423,-73.91567159
BEBE FRITAY RESTAURANT,Brooklyn,82B,EAST   18 STREET,11226.0,7184840242,Creole,40.64913928,-73.96302965
EL QUETZAL DELI GROCERY & PIZZERIA,Brooklyn,4006,13 AVENUE,11218.0,3476844186,Mexican,40.63995772,-73.98699605
PROJECT BRUNCH,Staten Island,4553,ARTHUR KILL ROAD,10309.0,7186059866,American,40.53207996,-74.23907026
BROOKLYNS FAMOUS ITALIAN HEROES,Brooklyn,406,36 STREET,11232.0,9177238742,Italian,40.65400344,-74.00394274
STAMATIS RESTAURANT,Queens,2909,23 AVENUE,11105.0,7189328596,Greek,40.77495221,-73.91369378
ONE STAR,Manhattan,147,WEST   24 STREET,10011.0,2127770100,American,40.74413888,-73.99367006
DONGWON SUSHI & TUNA,Queens,4119,162ND ST,11358.0,7189611761,Japanese,40.76108231,-73.80387693
LOVELY DAY,Manhattan,196,ELIZABETH STREET,10012.0,2129253310,Thai,40.72184045,-73.99448391
DUNKIN',Queens,8777,PARSONS BOULEVARD,11432.0,7185264820,Donuts,40.70730445,-73.80253891
CAFE BLISS & ORGANIC JUICE BAR,Queens,4417,48TH AVE,11377.0,3479444894,"Juice, Smoothies, Fruit Salads",40.73949796,-73.92107619
HAPPY GARDEN PALACE,Manhattan,54,EAST BROADWAY,10002.0,2129259888,Chinese,40.71360346,-73.99564972
THE SHOWROOM BAKEHOUSE,Brooklyn,445,ALBEE SQUARE,11201.0,6466453020,Bakery ProductsDesserts,40.69082623,-73.98345225
MIKE'S DINER,Queens,13311,CROSSBAY BLVD,11417.0,9172512416,American,40.67523152,-73.84328199
LAN LARB SOHO,Manhattan,227,CENTRE STREET,10013.0,6468959264,Thai,40.7199412,-73.99840186
CAMP EXPERIENCE STORES,Manhattan,20,HUDSON YARDS,10001.0,9179855039,,40.75303757,-74.00028153
NAYA,Manhattan,285,MADISON AVENUE,10017.0,6466449901,Middle Eastern,40.75174854,-73.98003712
Nomura cafeteria( 25 th floor),Manhattan,309,WEST   49 STREET,10019.0,2124368092,American,40.76187497,-73.9870624
MEXICUE,Manhattan,160,8 AVENUE,10011.0,6466493133,Mexican,40.74215459,-74.00075784
NEW GARDEN RESTAURANT,Staten Island,1755,RICHMOND ROAD,10306.0,7186689059,Chinese,40.58744783,-74.1035175
BLAZZE SEAFOOD & CHICKEN,Brooklyn,1714,NOSTRAND AVENUE,11226.0,7183606991,Caribbean,40.64395442,-73.94884948
CESTRA'S PIZZERIA & RESTAURANT,Bronx,3631,EAST TREMONT AVENUE,10465.0,7185187900,Pizza,40.82832576,-73.82401084
EL SHADDAI EATERY,Brooklyn,1010,CLARKSON AVENUE,11212.0,9292109275,Caribbean,40.65832629,-73.92439474
MARIO'S PIZZA,Queens,14929,GUY R BREWER BLVD,11434.0,7186563104,Pizza,40.65758018,-73.76753161
PAPA JOHN'S PIZZA,Bronx,868,EAST TREMONT AVENUE,10460.0,7187927272,Pizza,40.84294855,-73.88617314
SUBWAY,Queens,10811,CORONA AVENUE,11368.0,7182711633,Sandwiches,40.74300413,-73.85477477
GORKHALI RESTAURANT & BAR,Queens,7704,ROOSEVELT AVE,11372.0,9178326983,AsianAsian Fusion,40.74713432,-73.88851372
BAGEL BOB,Brooklyn,2114,FLATBUSH AVENUE,11234.0,6176331271,BagelsPretzels,40.61834244,-73.93220258
Mi Tea,Queens,10722,CONTINENTAL AVE,11375.0,7189099230,CoffeeTea,40.72062078,-73.8444844
JACQUELINE'S BAKERY RESTAURANT,Bronx,1579,WESTCHESTER AVENUE,10472.0,9173244753,Bakery ProductsDesserts,40.82894317,-73.87653836
IXTA,Manhattan,299,BOWERY,10003.0,9177324982,Mexican,40.72468117,-73.99239115
LA PULPERIA 44,Manhattan,623,9 AVENUE,10036.0,9174991797,Spanish,40.75982231,-73.99162547
FAMOUS AMADEUS PIZZA,Manhattan,840,8 AVENUE,10019.0,2124896187,Pizza,40.76268727,-73.98579879
SHAKING CRAB,Manhattan,2869,BROADWAY,10025.0,6468612152,American,40.80511424,-73.96601665
99 CENT TASTY PIZZA,Manhattan,151,EAST   43 STREET,10017.0,3478220402,Pizza,40.75184086,-73.97490109
SHEAS EMERALD,Bronx,2960,JEROME AVENUE,10468.0,7183649924,Bottled Beverages,40.87282557,-73.88960388
BROOKLYN BAGEL & COFFEE COMPANY,Manhattan,63,EAST    8 STREET,10003.0,2124773070,BagelsPretzels,40.73089262,-73.99311928
kokomo restaurant,Brooklyn,65,KENT AVENUE,11249.0,7184139400,Caribbean,40.72205039,-73.95983956
VALIENTES RESTAURANT,Queens,1921,MOTT AVE,11691.0,7188680609,Spanish,40.60388199,-73.75226989
J & R JAMAICAN RESTAURANT,Brooklyn,352,UTICA AVENUE,11213.0,7185768860,Caribbean,40.66594472,-73.93140786
GONG CHA,Queens,4006,UNION ST,11354.0,7187622874,CoffeeTea,40.76023757,-73.8264367
MURRAY'S CHEESE BARCHEESE SHOP,Queens,2830,JACKSON AVE,11101.0,3479902130,American,40.74863476,-73.93813277
RANCHO TEQUILERA,Manhattan,718,AMSTERDAM AVENUE,10025.0,2122474505,Mexican,40.79333512,-73.97089825
THE NOOK,Manhattan,199,2 AVENUE,10003.0,6466675285,Korean,40.73134482,-73.98567921
MOGE TEE,Manhattan,69,COOPER SQUARE,10003.0,9179818736,"Juice, Smoothies, Fruit Salads",40.7291879,-73.99015725
SOUP & GYRO,Manhattan,178A,CHURCH STREET,10013.0,6465590656,Turkish,40.71560149,-74.00741662
OUTER HEAVEN,Manhattan,191,CHRYSTIE STREET,10002.0,9173651057,Bottled Beverages,40.7217909,-73.99196939
DAVIDOVICH BAKERY,Manhattan,79,CLINTON STREET,10002.0,6465595558,Bakery ProductsDesserts,40.71882588,-73.98520933
DONOVAN'S PUB,Queens,57-24,ROOSEVELT AVENUE,11377.0,7184299339,American,40.74534768,-73.90723622
DOUGIES JAMAICAN CUISINE,Brooklyn,9604,AVENUE L,11236.0,9176858829,Caribbean,40.63830541,-73.89584122
BROOKLYN SUYA,Brooklyn,717,FRANKLIN AVENUE,11238.0,7185130122,African,40.67394989,-73.9567683
LA FLOR DE IZUCAR CAFE,Brooklyn,4021,5 AVENUE,11232.0,3475984108,Spanish,40.65053126,-74.00465247
GUN POST LANES SNACK BAR,Bronx,1215,EAST GUN HILL ROAD,10469.0,7188810331,American,40.87281911,-73.85208922
AMITABHA VEGETARIAN RESTAURANT,Queens,6824,FRESH MEADOW LN,11365.0,7184612100,AsianAsian Fusion,40.73328622,-73.79457032
WO HOP KITCHEN,Brooklyn,3150,FULTON STREET,11208.0,7182353081,Chinese,40.68179055,-73.87867588
CAFE LYRIA,Manhattan,166,CROSBY STREET,10012.0,6315078137,CoffeeTea,40.7258506,-73.99530978
MCDONALD'S,Brooklyn,357,HAMILTON AVENUE,11231.0,7186246688,Hamburgers,40.67367533,-73.99976928
PASHA PIZZA PITA,Brooklyn,665,CLASSON AVENUE,11238.0,3474350666,Pizza,40.6776205,-73.95907327
99 CENTS UTICA HOT PIZZA,Brooklyn,1127,EASTERN PARKWAY,11213.0,3478845060,Pizza,40.66877414,-73.93065515
LA CASA DEL MOFONGO AND PIANO BAR,Manhattan,546,WEST  207 STREET,10034.0,2125448888,Latin American,40.86597254,-73.92012286
A-JIAO SICHUAN CUISINE,Manhattan,1817,2 AVENUE,10128.0,2128288996,Chinese,40.78303421,-73.94798031
MASTER SMOOTHIE,Bronx,1219A,CASTLE HILL AVE,10462.0,7184848358,"Juice, Smoothies, Fruit Salads",40.83244011,-73.85117111
AYADA THAI RESTAURANT,Queens,7708,WOODSIDE AVE,11373.0,7184240844,Thai,40.74355995,-73.88780157
EL BURRITO NACHO & LA NOVA PIZZA,Brooklyn,1636,BROADWAY,11207.0,3474258390,Mexican,40.68489664,-73.91399468
DUMPLING LEGEND,Queens,17661,UNION TPKE,11366.0,7183800028,AsianAsian Fusion,40.72586692,-73.79142917
DUNKIN,Manhattan,10,WEST   33 STREET,10001.0,2122390173,Donuts,40.7479918,-73.98560704
WENDY'S,Bronx,4330,BOSTON ROAD,10475.0,7183258750,American,40.88998551,-73.81998783
AAA CARIDAD,Bronx,3108,WEBSTER AVENUE,10467.0,3472611758,Latin American,40.87142066,-73.87649896
HOTEL PIERRE-MAIN KITCHEN,Manhattan,2,EAST   61 STREET,10065.0,2128388000,American,40.76540201,-73.97186355
RELAX,Brooklyn,68A,NEWELL STREET,11222.0,7183891665,,40.72453753,-73.947218
SHAKE SHACK,Manhattan,2957,BROADWAY,10025.0,6463835507,Hamburgers,40.80785015,-73.96401763
APERION PRODUCTION,Brooklyn,777,KENT AVENUE,11205.0,3475855596,JewishKosher,40.6975671,-73.95999862
MCDONALD'S,Bronx,85,BRUCKNER BOULEVARD,10454.0,7187421804,Hamburgers,40.80613556,-73.92579752
THE CAFE,Manhattan,2,WEST LOOP ROAD,10044.0,3475562243,CoffeeTea,40.75654513,-73.95588069
ZOMA,Manhattan,2084,FREDRICK DOUGLAS BOULEVARD,10026.0,2126620620,Ethiopian,40.80229233,-73.95690135
BITES OF XI'AN,Manhattan,555,8 AVENUE,10018.0,2128401222,Chinese,40.75447004,-73.99181384
TACOMBI,Manhattan,350,5 AVENUE,10118.0,2129675555,Tex-Mex,40.7482689,-73.98469027
THINK COFFEE,Manhattan,568,6 AVENUE,10011.0,2122552817,CoffeeTea,40.73852869,-73.99597286
JOE BAKERY INC,Brooklyn,8517,18 AVENUE,11214.0,7183318828,Chinese,40.60765783,-74.00212486
TAIM,Brooklyn,341,7 AVENUE,11215.0,3475990119,Mediterranean,40.66651003,-73.98187586
CHINA ONE RESTAURANT,Bronx,334,EAST GUN HILL ROAD,10467.0,7187980109,Chinese,40.87880862,-73.87319806
ROMA PIZZA,Brooklyn,85,7 AVENUE,11217.0,7187837334,Pizza,40.67467451,-73.97530517
DUNKINBASKIN ROBBINS,Bronx,5501,BROADWAY,10463.0,7184322606,Donuts,40.87701234,-73.90625627
THOMPSON CENTRAL PARK HOTEL - NEW YORK,Manhattan,118,WEST   57 STREET,10019.0,2122455000,American,40.76465678,-73.97803331
CHINA I,Brooklyn,5602,4 AVENUE,11220.0,9176716518,Chinese,40.64301501,-74.01617551
THE BELL HOUSE OUTPOST,Brooklyn,201,36 STREET,11232.0,3472489486,Bottled Beverages,40.65612772,-74.0074208
JACQUES BRASSERIE,Manhattan,204,EAST   85 STREET,10028.0,2123272272,French,40.77795627,-73.95408998
DEL FRISCO'S GRILLE,Manhattan,60,ROCKEFELLER PLAZA,10020.0,2127670371,American,40.75959271,-73.97806747
ALOFT NEW YORK BROOKLYN,Brooklyn,216,DUFFIELD STREET,11201.0,7182563833,American,40.69159215,-73.9843788
ISTANBUL BAY TURKISH CAFE,Brooklyn,2202,86 STREET,11214.0,7187144300,Turkish,40.60184421,-73.9936656
AUNT BUTCHIES OF BROOKLYN,Staten Island,4864,ARTHUR KILL ROAD,10309.0,7182270002,Italian,40.5235653,-74.23920515
MOTORINO PIZZERIA,Brooklyn,139,BROADWAY,11211.0,7185998899,Pizza,40.71038913,-73.96360513
TOMPKINS SQUARE BAGELS,Manhattan,184,2 AVENUE,10003.0,7188109857,BagelsPretzels,40.73074377,-73.98609427
HIGH LINE CHICKEN & PIZZA,Brooklyn,263,SCHENECTADY AVENUE,11213.0,3472400637,Chicken,40.66954729,-73.93381936
CHICKN ROTONDA,Queens,6458,DRY HARBOR RD,11379.0,9294132645,Filipino,40.71844596,-73.87264215
CURRY INDIA RESTAURANT,Manhattan,148,WEST   49 STREET,10019.0,9172614903,Indian,40.75984046,-73.98229436
Gu Xiang Wei,Queens,4247,MAIN ST,11355.0,9172871518,Chinese,40.75391279,-73.82769487
PARRILLA LATINA,Bronx,2501,WEBSTER AVENUE,10458.0,7183293000,Spanish,40.86104751,-73.8920421
THE GOURMET BAGEL SHOPPE,Brooklyn,6220,AVENUE U,11234.0,3478429221,BagelsPretzels,40.6157606,-73.91334211
ACTION BURGER,Brooklyn,292,GRAHAM AVENUE,11211.0,7185994376,American,40.71226414,-73.94400299
UT47 MANHATTAN,Manhattan,358,WEST   47 STREET,10036.0,9045990688,CoffeeTea,40.76106822,-73.98908042
WINTER GARDEN THEATER,Manhattan,1634,BROADWAY,10019.0,2125867610,American,40.76155893,-73.98394359
MORGAN STANLEY CONFERENCE CENTER,Manhattan,522,5 AVENUE,10036.0,2122966699,American,40.75450705,-73.98014457
MR WISH,Queens,8062,LEFFERTS BLVD,11415.0,3477847172,"Juice, Smoothies, Fruit Salads",40.7092969,-73.82976923
DIAMOND FOREST CHINESE FOOD,Staten Island,356,FOREST AVENUE,10301.0,7187206669,Chinese,40.63110576,-74.10118246
CHAMPION PIZZA,Manhattan,17,CLEVELAND PLACE,10012.0,2122263777,Pizza,40.72159627,-73.99733757
TERMINAL 5,Manhattan,610,WEST   56 STREET,10019.0,2813630900,American,40.76984073,-73.99241485
ZERDA,Brooklyn,101,SMITH STREET,11201.0,3479874716,Mediterranean,40.68831821,-73.98936282
YUMMY MACHI,Staten Island,2236,FOREST AVENUE,10303.0,7188767788,Japanese,40.6269102,-74.16411893
JAJAJA,Manhattan,63,CARMINE STREET,10014.0,6507995693,Mexican,40.72972347,-74.00435495
FIELDTRIP,Manhattan,30,ROCKEFELLER PLAZA,10112.0,6466698595,American,40.75874744,-73.97869222
HALAL BOYZ,Queens,18320,HORACE HARDING EXPY,11365.0,9293622277,Middle Eastern,40.73944682,-73.79075138
CHINA WOK III,Bronx,2459,WEBSTER AVENUE,10458.0,7185842488,Chinese,40.86014534,-73.89295098
CHECKERS,Queens,8345,PARSONS BOULEVARD,11432.0,7182914738,Hamburgers,40.71480348,-73.80755957
PRIMA PASTA & CAFE,Queens,161-50,CROSSBAY BOULEVARD,11414.0,7186597278,Italian,40.65497437,-73.83884996
GLAZE,Manhattan,350,HUDSON STREET,10014.0,2129331322,AsianAsian Fusion,40.72754124,-74.00727364
WILD RABBIT COFFEE,Manhattan,110,EAST    7 STREET,10009.0,6462845751,CoffeeTea,40.72650017,-73.98464118
THE MERMAID INN,Manhattan,570,AMSTERDAM AVENUE,10024.0,2127997400,Seafood,40.78872475,-73.97426238
BK TOP-NOTCH RESTAURANT,Brooklyn,7406,NEW UTRECHT AVENUE,11204.0,7182562138,Bakery ProductsDesserts,40.61645488,-73.99976227
18TH AVE CAFE G,Brooklyn,8611,18 AVENUE,11214.0,9179722575,Eastern European,40.60685907,-74.00304319
DUNKIN,Manhattan,381,CANAL STREET,10013.0,2126191222,Donuts,40.72141231,-74.00471877
CAFE HONG KONG,Manhattan,51,BAYARD STREET,10013.0,2126085359,Chinese,40.71523665,-73.9974244
JUMAK,Queens,14906,NORTHERN BLVD,11354.0,3478048719,Korean,40.76533071,-73.81686766
LAND THAI KITCHEN,Manhattan,450,AMSTERDAM AVENUE,10024.0,2125018121,Thai,40.7848525,-73.97709135
SAN JERONIMO RESTAURANT & BAKERY,Staten Island,461,PORT RICHMOND AVENUE,10302.0,3476154893,Mexican,40.63122838,-74.13872671
MURRAY HILL DINER,Manhattan,222,LEXINGTON AVENUE,10016.0,2126866667,American,40.74589123,-73.98010384
ELYON RESTAURANT,Queens,21221,JAMAICA AVE,11428.0,2292065060,Caribbean,40.71586679,-73.74605868
KINGS WOK,Queens,4912,30TH AVE,11377.0,9176052119,Chinese,40.76029025,-73.90734889
CHIU HONG BAKERY,Manhattan,161,MOTT STREET,10013.0,2129667664,Bakery ProductsDesserts,40.71957335,-73.99628064
SEATTLE CAFE,Manhattan,2,PENN PLZ,10121.0,2019365625,American,40.75000977,-73.99134519
SERAFINA 105,Manhattan,2735-2737,BROADWAY,10025.0,2123010664,Italian,40.80029231,-73.96804901
DYNASTY,Queens,14718,NORTHERN BLVD,11354.0,7189615381,Chinese,40.76515857,-73.8190919
AVANT GARDENER,Brooklyn,111,GARDNER AVENUE,11237.0,3479873146,American,40.71089459,-73.92494448
PLAYA BOWLS,Manhattan,1,NEW YORK PLAZA,10004.0,917265853_,JewishKosher,40.70253319,-74.01256178
DEVON & BLAKELY,Manhattan,250,PARK AVENUE,10177.0,2126610101,American,40.7550112,-73.97556764
HOUSTON HALL,Manhattan,222,WEST HOUSTON STREET,10014.0,2126759323,American,40.72854047,-74.00464712
KEANE'S BAR & RESTAURANT,Bronx,4342,KATONAH AVENUE,10470.0,9292377958,Irish,40.90006298,-73.86764088
PRIVATE KITCHEN,Queens,3635,MAIN ST,11354.0,7183586667,Chinese,40.76232301,-73.83157167
AL DI LA TRATTORI,Brooklyn,248,5 AVENUE,11215.0,7187834565,Italian,40.67523832,-73.98127143
SUN HONG WONG SEAFOOD RESTAURANT,Manhattan,100,BOWERY,10013.0,2122268778,Chinese,40.71770961,-73.99520934
THE HOPTIMIST,Manhattan,422,AMSTERDAM AVENUE,10024.0,9176137264,Bottled Beverages,40.78402096,-73.97769468
MI CANDILEJAS RESTAURANT,Brooklyn,1509,MERMAID AVENUE,11224.0,7182666161,Latin American,40.57683534,-73.98287223
KFC,Brooklyn,1667,PITKIN AVENUE,11212.0,9177965620,Chicken,40.66952697,-73.91180483
IRON CHEF HOUSE,Brooklyn,92,CLARK STREET,11201.0,7188588517,Japanese,40.69732132,-73.99253854
PAPER RAIN,Brooklyn,2770,ATLANTIC AVENUE,11207.0,7183001514,American,40.67629783,-73.89196738
BROOKLYNS FINEST PIZZA & RESTAURANT,Staten Island,1250,HYLAN BOULEVARD,10305.0,7188157070,Pizza,40.59767428,-74.08420011
MESS HALL,Manhattan,2194,FRDRCK DGLS BLVD,,6466923098,American,0.0,0.0
MACA RESTAURANT,Queens,6212,WOODHAVEN BLVD,11374.0,7186512441,Peruvian,40.72661192,-73.87042927
MAJORELLE,Manhattan,28,EAST   63 STREET,10065.0,2129352888,French,40.76596952,-73.96933628
SARAGHINA RESTAURANT,Brooklyn,435,HALSEY STREET,11233.0,7185740010,Italian,40.68344785,-73.93559387
OCTAVIA COFFEE,Brooklyn,198,COURT STREET,11201.0,8024917711,CoffeeTea,40.68706691,-73.99363945
HUI RESTAURANT AND BAR,Manhattan,314,EAST   70 STREET,10021.0,6468690339,Chinese,40.76715736,-73.95855594
ANGELA'S BAKERY,Brooklyn,717,KNICKERBOCKER AVENUE,11221.0,7184180095,Bakery ProductsDesserts,40.69411335,-73.91009172
The Palms West Indian & American Cuisine,Bronx,3432,WILSON AVENUE,10469.0,3473267738,Caribbean,40.87574889,-73.85086407
KOSHER BAGEL HOLE,Brooklyn,1431,CONEY ISLAND AVENUE,11230.0,7183779700,JewishKosher,40.6227213,-73.96477703
AQUI EN BELLA PUEBLA MEXICAN RESTAURANT,Queens,9411,ROOSEVELT AVENUE,11372.0,7186397300,Mexican,40.74884677,-73.87243223
"THE PENINSULA NEW YORK, CLEMENT THE GOTHAM LOUNGE SALON DE NING",Manhattan,700,FIFTH AVE,10019.0,2129562888,American,40.76172757,-73.97533775
RICO'S CHICKEN POLLOS A LA BRASA,Queens,14604,45TH AVE,11355.0,7188861491,Latin American,40.75489765,-73.81673402
J-M PIZZA II,Brooklyn,1323,AVENUE U,11229.0,7186456010,Pizza,40.59866096,-73.95797675
TRATTORIA OLIVETO,Staten Island,1642,HYLAN BOULEVARD,10305.0,6469199002,Italian,40.58869154,-74.09016545
SOFREH REASTAURANT NYC,Brooklyn,75,SAINT MARKS AVENUE,11217.0,6463400322,Middle Eastern,40.67963399,-73.9738035
RAINBOW BAKERY,Queens,13538,ROOSEVELT AVE,11354.0,3475060019,Other,40.75919612,-73.83115728
NEW LUCKY STAR,Bronx,807,SOUTHERN BOULEVARD,10459.0,7183280737,Chinese,40.81658086,-73.89595131
810 DELI & CAFE,Manhattan,810,7 AVENUE,10019.0,2125414136,American,40.76263186,-73.98214562
GOLDEN KRUST CARIBBEAN BAKERY & GRILL,Brooklyn,1936,RALPH AVENUE,11236.0,7185312828,Caribbean,40.63036385,-73.91843168
LYRIC THEATRE,Manhattan,214,WEST   43 STREET,10036.0,2125564703,Other,40.75698107,-73.98713554
TUNG HING CHINESE KITCHEN,Brooklyn,5224,4 AVENUE,11220.0,7184920740,Chinese,40.64516721,-74.01393828
CHECKERS,Bronx,260,EAST  161 STREET,10451.0,7185857777,Hamburgers,40.8256789,-73.91881282
CHOTE NAWAB,Manhattan,115,LEXINGTON AVENUE,10016.0,2126794603,Indian,40.74254027,-73.98251551
EL FONDITA CAFE,Brooklyn,577,5 AVENUE,11215.0,3472512568,Mexican,40.66483396,-73.98991447
ASHOKA GRILL,Brooklyn,1436,FLATBUSH AVENUE,11210.0,7184341001,Indian,40.63562205,-73.95063936
CHINA LONG,Brooklyn,197,NEPTUNE AVENUE,11235.0,7183325807,Chinese,40.58181439,-73.96062623
GOOD THING JUICE,Queens,11665,NEWBURGH ST,11412.0,3476023806,"Juice, Smoothies, Fruit Salads",40.69248926,-73.76527463
BUENO DELI & FOODS,Brooklyn,10013,FOSTER AVENUE,11236.0,5167109374,Spanish,40.64988669,-73.90329363
NATIONAL BURGER HOUSE,Bronx,470,EAST TREMONT AVENUE,10457.0,7188125270,American,40.84698336,-73.89790959
COOKERZ BLEND,Queens,21784,HEMPSTEAD AVE,11429.0,7187495367,Caribbean,40.71413473,-73.73868128
LIT. BOOKBAR,Bronx,131,ALEXANDER AVENUE,10454.0,6463795726,American,40.80724808,-73.92719785
TACO BELL,Bronx,3351,CONNER STREET,10475.0,7328958779,Mexican,40.88275956,-73.82412296
EVE ULTRA LOUNGE,Staten Island,2354,ARTHUR KILL ROAD,10309.0,7186051000,American,40.55560593,-74.21398223
LE PAIN QUOTIDIEN,Manhattan,41,W 40TH ST,10018.0,6462767589,Other,40.75306938,-73.98388067
KHALIL BIRYANI HOUSEKHALIL HALAL CHINESE,Bronx,2060,MCGRAW AVENUE,10462.0,9296248398,Afghan,40.83549045,-73.85622002
RIVIERA V  RISTORANTE,Queens,22330,UNION TPKE,11364.0,7182175555,Pizza,40.7356237,-73.74730017
PRESS 195,Queens,4011,BELL BOULEVARD,11361.0,7182811950,SandwichesSaladsMixed Buffet,40.76411249,-73.77123759
MARCELLINO,Manhattan,178,MULBERRY STREET,10012.0,6465590640,Italian,40.72059716,-73.99678565
LITTLE POLAND RESTAURANT,Manhattan,200,2 AVENUE,10003.0,2127779728,Polish,40.73139422,-73.98561786
LASH SWEET AND TINGS,Bronx,810,BURKE AVENUE,10467.0,3474271561,"Juice, Smoothies, Fruit Salads",40.87135314,-73.86293625
MAKIMAKI,Manhattan,350,HUDSON STREET,10014.0,6468337063,Japanese,40.72754124,-74.00727364
GALANGA THAI COOKING,Manhattan,149,WEST    4 STREET,10012.0,2122284367,Thai,40.73151589,-74.00055927
E.A.K. RAMEN,Manhattan,469,6 AVENUE,10011.0,6468632027,Japanese,40.73558361,-73.99814168
"DUNKIN', BASKIN ROBBINS",Queens,7413,ROOSEVELT AVENUE,11372.0,7182054440,American,40.74686793,-73.89121371
AVIATOR GRILL AT INTREPID,Manhattan,1,INTREPID SQ,,3472208442,American,0.0,0.0
THE BREW INN,Brooklyn,924,MANHATTAN AVE,11222.0,7185747155,Polish,40.73102362,-73.95408997
POPEYES,Manhattan,2534,BROADWAY,10025.0,9174093737,Chicken,40.79381857,-73.97237878
789 COCINA LATINA RESTAURANT INC.,Bronx,789,ALLERTON AVENUE,10467.0,7186542067,Spanish,40.86550256,-73.86393538
MOON THAI,Bronx,438,WEST  238 STREET,10463.0,2124706177,Thai,40.88716368,-73.90456016
TWO BOOTS UPPER WEST SIDE,Manhattan,70,WEST   71 STREET,10023.0,6468613970,Pizza,40.77640718,-73.9785674
SUBWAY,Brooklyn,1432,MYRTLE AVENUE,11237.0,7184431700,Sandwiches,40.69889744,-73.91732689
KENNEDY FRIED CHICKEN,Bronx,3042,3 AVENUE,10451.0,9173764215,Chicken,40.82027845,-73.9129483
GOLDEN Z RESTAURANT,Brooklyn,1410,AVENUE U,11229.0,7183824328,Chinese,40.59873749,-73.95712327
MERRICK JERK,Queens,23418,MERRICK BLVD,11422.0,7182762123,Caribbean,40.67435894,-73.73580225
LITTLE CAESARS,Bronx,15,EAST  167 STREET,10452.0,7189929000,Pizza,40.83589687,-73.92176005
DOMINO'S,Manhattan,170,WEST   23 STREET,10011.0,2122435700,Pizza,40.74366958,-73.99465532
RENAISSANCE HARLEM,Manhattan,2245,ADAM CLAYTON POWELL JR BOULEVARD,,3473329231,American,0.0,0.0
VELA JUICE BAR,Queens,1442,27TH AVE,11102.0,7187770515,"Juice, Smoothies, Fruit Salads",40.77328824,-73.92874789
HIGH LINE CHICKEN & PIZZA,Brooklyn,263,SCHENECTADY AVENUE,11213.0,3472400637,Chicken,40.66954729,-73.93381936
MI SABOR CAFE,Brooklyn,920,BROADWAY,11206.0,7186026160,Latin American,40.69747946,-73.9361717
UNIQUE EATS,Queens,16568,BAISLEY BLVD,11434.0,3475450598,American,40.67933673,-73.77791099
VINEGAR HILL HOUSE,Brooklyn,72,HUDSON AVENUE,11201.0,7185221018,American,40.70274093,-73.98114465
GOOD TASTE FLATLANDS,Brooklyn,5919,FLATLANDS AVENUE,11234.0,5163511929,Creole,40.63163804,-73.91928757
Rincon Melania's,Queens,3511,QUEENS BLVD,11101.0,9177717155,Latin American,40.74443037,-73.92961974
VALBELLA AT THE PARK,Manhattan,1095,6 AVENUE,10036.0,9146431191,,40.7546806,-73.98424122
BAKERY 88,Brooklyn,5711,8 AVENUE,11220.0,7188538188,Bakery ProductsDesserts,40.6370597,-74.00790868
AYNA AGRA,Queens,21335,39 AVENUE,11361.0,7182251201,Indian,40.76536496,-73.77166647
MIDDLE BRANCH,Manhattan,154,EAST   33 STREET,10016.0,2122131350,American,40.74550415,-73.97970337
PIZZA SQUAD,Bronx,2539,WEBSTER AVENUE,10458.0,7187336009,Pizza,40.86193862,-73.89105729
THE COBRA CLUB,Brooklyn,6,WYCKOFF AVENUE,11237.0,9177191138,American,40.70685597,-73.9233404
DUNKIN,Manhattan,3936,10 AVENUE,10034.0,2125691324,Donuts,40.86648941,-73.91745398
HERB N' KITCHEN INSIDE HILTON MIDTOWN,Manhattan,1335,AVENUE OF THE AMERICAS,10019.0,3472680152,American,40.76221133,-73.97874165
STOP ONE FOOD MARKET,Queens,17103,JAMAICA AVE,11432.0,2126550800,Spanish,40.70749358,-73.78854006
NO CHEWING ALLOWED,Manhattan,42,WEST   42 STREET,10036.0,9177706455,CoffeeTea,40.75406824,-73.98232117
TAKUMI TACO,Manhattan,75,9 AVENUE,10011.0,5165109228,Tex-Mex,40.74186904,-74.00471301
QUEEN BAKERY II,Manhattan,139,CENTRE STREET,10013.0,2129650788,Chinese,40.71721016,-74.00060243
NICE CHINATOWN,Brooklyn,1411,FOSTER AVENUE,11230.0,9173752552,Chinese,40.63373305,-73.96376239
HAAGEN-DAZS ICE CREAM,Brooklyn,120,MONTAGUE STREET,11201.0,7182073764,Frozen Desserts,40.69488682,-73.99469891
PEKING KITCHEN,Bronx,724,LYDIG AVENUE,10462.0,7188297464,Chinese,40.85446082,-73.86654992
LA FLOR VIEJA,Queens,3203,31ST AVE,11106.0,3474486231,Mexican,40.76390263,-73.92253084
MERIT DELI,Queens,3202,37TH AVE,11101.0,7187061133,Sandwiches,40.75446556,-73.93017939
STOP INN RESTAURANT & CAFE,Queens,6022,ROOSEVELT AVENUE,11377.0,7187790290,American,40.74549882,-73.9041215
ATLAS SOCIAL CLUB,Manhattan,753,9 AVENUE,10019.0,2122628527,American,40.76390351,-73.98865398
AVOCADO SUSHI,Staten Island,4906,ARTHUR KILL ROAD,10309.0,3474051970,Japanese,40.52271432,-74.23924885
MAD FOR CHICKEN,Brooklyn,80,MONTAGUE STREET,11201.0,9148479598,Chicken,40.69530409,-73.99621349
EMPIRE 111,Manhattan,1902,A C POWELL BOULEVARD,10026.0,3476229308,Chinese,40.80264211,-73.95295316
ROMA PIZZA,Brooklyn,85,7 AVENUE,11217.0,7187837334,Pizza,40.67467451,-73.97530517
BURGER KING,Manhattan,106,FULTON STREET,10038.0,2125665132,Hamburgers,40.70972223,-74.00679196
BENNY'S CHAO KING RESTAURANT,Manhattan,906,COLUMBUS AVENUE,10025.0,2128643790,Chinese,40.79816108,-73.96366893
TUK TUK,Queens,4906,VERNON BLVD,11101.0,7184725598,Thai,40.74327893,-73.95392631
Buonissima Pizzeria,Brooklyn,7203,20 AVENUE,11204.0,7182364606,Pizza,40.61246079,-73.99006288
EL CHANTILLY BAKERY,Brooklyn,5713,4 AVENUE,11220.0,6466432194,Bakery ProductsDesserts,40.64240283,-74.01678073
SLICE PIZZA,Manhattan,700,3 AVENUE,10017.0,9174420050,Pizza,40.75196956,-73.97358005
BABY LUC'S,Brooklyn,387,COURT STREET,11231.0,7182161233,Pizza,40.68012826,-73.99696066
ANARKALI INDIAN FOOD,Brooklyn,1125,CHURCH AVENUE,11218.0,7182822200,Indian,40.64710169,-73.96903076
BLANK STREET SPRINGBORN,Brooklyn,277,BEDFORD AVENUE,11211.0,9292950537,American,40.7143491,-73.96137008
HAPPY LAMB,Queens,13659,37TH AVE,11354.0,7187628881,Chinese,40.76197387,-73.82933807
SUBWAY,Queens,10502,ROCKAWAY BLVD,11417.0,7188451300,Sandwiches,40.67880033,-73.83396104
CHITO GVRITO,Manhattan,173,3 AVENUE,10003.0,6463771791,,40.73483071,-73.9860429
BOMBAY MASALA INDIAN DINING,Brooklyn,7205,3 AVENUE,11209.0,6466645586,Indian,40.63338427,-74.02698891
HOME BASE,Manhattan,416,3 AVENUE,10016.0,2124811712,American,40.74267716,-73.98035381
BRONX BURGER HOUSE,Bronx,5816,MOSHOLU AVENUE,10471.0,3478998585,American,40.90463792,-73.89659794
TRUTH JUICE,Bronx,220R,SOUNDVIEW AVE,,9178424885,"Juice, Smoothies, Fruit Salads",0.0,0.0
ST GEORGE TAVERN RESTAURANT & BAR,Manhattan,103,WASHINGTON STREET,10006.0,2122409868,AsianAsian Fusion,40.70845072,-74.01427979
SWEET BAKERY,Queens,11702,JAMAICA AVE,11418.0,9173002479,Bakery ProductsDesserts,40.69952399,-73.83247026
GOLDEN CITY RESTAURANT GAO,Bronx,805,SOUNDVIEW AVENUE,10473.0,9177038877,Chinese,40.82120762,-73.86596651
TACO TAVERN,Manhattan,480,AMSTERDAM AVENUE,10024.0,9176757042,Tex-Mex,40.78582674,-73.97637963
SUBWAY,Queens,20512,NORTHERN BOULEVARD,11361.0,7184282177,Sandwiches,40.75806243,-73.77792182
MONA'S,Manhattan,224,AVENUE B,10009.0,2123533780,American,40.72906276,-73.97830487
JUST SALAD,Manhattan,1471,THIRD AVENUE,10028.0,6468670957,Salads,40.77695218,-73.95532913
BURRITO BLVD,Queens,3620,30TH AVE,11103.0,9173964141,Mexican,40.76489523,-73.91716163
PRET A MANGER,Manhattan,655,AVENUE OF THE AMERICAS,10010.0,2122552087,"Soups,Salads,Sandwiches",40.7411279,-73.99409979
PARAISO AZTECA RESTAURANT & BAR,Queens,10253,43 AVENUE,11368.0,9175156471,Latin American,40.74727896,-73.86245266
TAQUERIA RESTAURANTE MI BARRIO,Brooklyn,3415,14 AVENUE,11218.0,7188715609,Mexican,40.64190574,-73.98135649
SZECHWAN ABSOLUTE,Queens,133-42,39 AVENUE,11354.0,9179836666,Chinese,40.75909891,-73.83413912
M&G RESTAURANT,Bronx,2390,ARTHUR AVENUE,10458.0,7185843788,American,40.85528771,-73.88777142
OCEANA,Manhattan,120,WEST   49 STREET,10019.0,2127595941,Seafood,40.75960433,-73.9817241
TXIKITO,Manhattan,240,9 AVENUE,10001.0,2122424730,Spanish,40.74744649,-74.00061354
MCM COFFEE,Manhattan,88,FULTON STREET,10038.0,9173489766,CoffeeTea,40.70929135,-74.00594428
EMPLOYEE'S ONLY,Manhattan,510,HUDSON STREET,10014.0,2122423021,American,40.73339039,-74.00633974
JAC MAO CHINESE CUISINE,Staten Island,1771,HYLAN BOULEVARD,10305.0,7189796100,Chinese,40.5858349,-74.09274297
Banquet Kitchen,Manhattan,455,MADISON AVENUE,10022.0,6463156897,American,40.75810725,-73.97539324
ALL'ANTICO VINAIO,Manhattan,225,SULLIVAN STREET,10012.0,9176879577,Sandwiches,40.72951221,-73.99981238
FIORENTINA RESTAURANT,Manhattan,852,8 AVENUE,10019.0,2129180737,Pizza,40.7631209,-73.98548102
EL RANCHITO DE DAISY SALVADORENO,Queens,4149,150TH ST,11355.0,7186663307,Latin American,40.76151541,-73.81340916
ONE BAKERY,Brooklyn,6302,11 AVENUE,11219.0,9295262899,Bakery ProductsDesserts,40.62970934,-74.00482394
POPPI,Manhattan,824,MADISON AVENUE,10065.0,914815640_,CoffeeTea,40.76967978,-73.96697707
DUNKIN,Bronx,1776,EASTCHESTER ROAD,10461.0,9148154205,Donuts,40.84978213,-73.8434764
NIFOROS COFFEE SHOP,Queens,4357,11TH ST,11101.0,7187867759,American,40.75053123,-73.94896223
ROKA MODERN MEDITERRANEAN,Brooklyn,349,BEDFORD AVENUE,11211.0,9293308884,Mediterranean,40.71198635,-73.96287202
ZUTTO JAPANESE AMERICAN PUB,Manhattan,77,HUDSON STREET,10013.0,6462555410,Japanese,40.71838184,-74.00887074
DOMY PIZZA,Bronx,663,DAWSON STREET,10455.0,6467961443,Pizza,40.81644364,-73.90221611
173 WEBSTER CAFE,Bronx,1692,WEBSTER AVENUE,10457.0,7186180832,Latin American,40.84321139,-73.90344521
THE BEER GARDEN,Staten Island,1883,VICTORY BOULEVARD,10314.0,7188768900,American,40.61279751,-74.12655762
SUZUME,Brooklyn,545,LORIMER STREET,11211.0,7184860200,Japanese,40.71316412,-73.94922902
SUNBURST ESPRESSO BAR,Manhattan,206,3 AVENUE,10003.0,2126741702,American,40.73587363,-73.98530656
CHAIRMAN SUN,Queens,4730,VERNON BLVD,11101.0,2129676088,Chinese,40.74464289,-73.95347064
FRESH STOP,Manhattan,326,AUDUBON AVENUE,10033.0,9175290966,"Juice, Smoothies, Fruit Salads",40.84895472,-73.9321835
100 FUN,Brooklyn,932934,60 STREET,,7184368883,AsianAsian Fusion,0.0,0.0
LE PETIT MONSTRE,Brooklyn,82,WASHINGTON AVENUE,11205.0,7189091913,Vegan,40.69639196,-73.96749675
AL-AQSA RESTAURANT,Staten Island,1758,HYLAN BOULEVARD,10305.0,2016868123,Middle Eastern,40.58614532,-74.09241218
SWEET DREAMS CAFE,Manhattan,100,ORCHARD STREET,10002.0,9179670072,Bakery ProductsDesserts,40.71855192,-73.9900001
EAST GARDEN ASIAN CUISINE,Brooklyn,2072,FLATBUSH AVENUE,11234.0,7182523822,Chinese,40.61929275,-73.93325342
BOGOTA LATIN BISTRO,Brooklyn,141,5 AVENUE,11217.0,7182303805,Latin American,40.67820507,-73.97923001
DOMINICK'S BAR & RESTAURANT,Bronx,2335,ARTHUR AVENUE,10458.0,7187332807,Italian,40.85418803,-73.8887493
KINGSTON BAKE SHOP,Brooklyn,380,KINGSTON AVENUE,11225.0,7184672047,JewishKosher,40.66568735,-73.94255354
ORALE PAISANO,Queens,17009,JAMAICA AVE,11432.0,6468753271,Mexican,40.70726735,-73.78940282
KULUSHKAT,Brooklyn,1137,WASHINGTON AVENUE,11225.0,3473782514,Mediterranean,40.66116338,-73.96069455
TOTONNO'S PIZZERIA,Brooklyn,1524,NEPTUNE AVENUE,11224.0,7183728606,Pizza,40.57911086,-73.98342963
LA BOULANGERIE,Queens,10901,72 ROAD,11375.0,3476445606,Bakery ProductsDesserts,40.71903571,-73.84150471
MAZETE,Manhattan,666,6 AVENUE,10010.0,2123678300,Japanese,40.74142707,-73.99385798
SAN MARZANO,Manhattan,117,2 AVENUE,10003.0,2127773600,Italian,40.72788944,-73.9881911
KANOYAMA,Manhattan,175,2 AVENUE,10003.0,2127775266,Japanese,40.73047206,-73.98631442
NIGHT MARKET BBQ,Queens,4506,PARSONS BLVD,11355.0,9293290050,Barbecue,40.75551872,-73.81549065
MARISCOS EL SUBMARINO,Queens,8805,ROOSEVELT AVE,11372.0,6462091732,Mexican,40.74824093,-73.87817905
BAY RIDGE DINER,Brooklyn,8017,5 AVENUE,11209.0,7189210266,American,40.62557873,-74.02422269
SAINT ANNS,Queens,26315,UNION TURNPIKE,11004.0,7183432630,American,40.74880366,-73.70889216
BAODEGA,Manhattan,7,WEST   20 STREET,10011.0,6463706034,Chinese,40.73993651,-73.99156303
BUTTERFIELD CATERING,Manhattan,346,EAST   92 STREET,10128.0,2127728782,American,40.7811979,-73.94783009
RESOBOX,Manhattan,91,EAST    3 STREET,10003.0,2125985993,Japanese,40.72481804,-73.98805455
SOFTBITE,Queens,4260,CRESCENT ST,11101.0,3476124136,Japanese,40.74917196,-73.94188576
RED PEONY CHINESE CUISINE,Manhattan,24,WEST   56 STREET,10019.0,2123808883,Chinese,40.76269925,-73.97546373
CHOP'T,Manhattan,80,PINE STREET,10005.0,9173384803,Salads,40.70588502,-74.0071811
5 ESTRELLAS BAKERY AND RESTAURANT,Manhattan,3451,BROADWAY,10031.0,2129331985,Spanish,40.82363373,-73.95249745
ADDICCION,Staten Island,308,FRONT STREET,10304.0,7183134986,Bottled Beverages,40.62933931,-74.07459598
MCDONALD'S,Queens,7002,COOPER AVENUE,11385.0,7184970722,Hamburgers,40.7017391,-73.88083222
TIGER SUGAR,Manhattan,197,CANAL STREET,10013.0,3472077951,CoffeeTea,40.71700704,-73.99831896
DOMINO'S,Brooklyn,1216,CORTELYOU ROAD,11218.0,7186920900,Pizza,40.64012932,-73.96681083
NATHAN'S FAMOUS,Brooklyn,3059,WEST   12 STREET,11224.0,7183722592,Hotdogs,40.57385947,-73.97966574
TEAMAKERS,Manhattan,15,WEST   32 STREET,10001.0,2126457575,CoffeeTea,40.74744292,-73.98617017
NEEL'S PASTA & PIZZA,Queens,1001,36TH AVE,11106.0,7186266300,Pizza,40.76134983,-73.94066943
V.I. PIZZA,Queens,4302,BELL BOULEVARD,11361.0,7182299311,Pizza,40.76125244,-73.76986129
MAMAN,Brooklyn,80,KENT STREET,11222.0,3476899195,French,40.73053659,-73.95809171
MARGHERITA'S MEXICAN CUISINE,Bronx,945,EAST  163 STREET,10459.0,7184508380,Pizza,40.82099739,-73.89620813
BARRIO CHINO,Manhattan,253,BROOME STREET,10002.0,2122286710,Mexican,40.71803041,-73.98997132
BAGEL NEST,Brooklyn,1237,FULTON STREET,11216.0,7188727545,American,40.68055753,-73.95228609
COCOLUAH PIZZA,Queens,9404,SUTPHIN BLVD,11435.0,3474549996,Pizza,40.69889635,-73.80687717
MR.KING CHICKEN & PIZZA,Queens,21147,JAMAICA AVE,11428.0,5713405191,Chicken,40.71546191,-73.74791439
LA MORADA RESTAURANT,Bronx,308,WILLIS AVENUE,10454.0,7182920235,Mexican,40.81061506,-73.92177544
STEAMANIA,Brooklyn,1005,SURF AVENUE,11224.0,9295099458,Seafood,40.57544841,-73.97811018
MCDONALD'S,Brooklyn,904,MANHATTAN AVENUE,11222.0,3477284265,Hamburgers,40.73038965,-73.95427081
LA CANTINA HEIGHTS,Manhattan,4460,BROADWAY,10040.0,6469187503,American,40.85687348,-73.93253328
